{
"type": "FeatureCollection",
"name": "XS_TAN",
"crs": { "type": "name", "properties": { "name": "urn:ogc:def:crs:EPSG::2277" } },
"features": [
{ "type": "Feature", "properties": { "FID": 0, "Count": 3, "Length": 384.85053398000002, "River": "Tannehill", "Reach": "TAN 3", "RiverStati": "22629", "NodeName": null, "LastEdited": "01Oct2012 10:08:13", "NodeDescri": "From 2003 COA DEM", "LeftBank": 260.97, "RightBank": 299.32, "LengthLOB": 483.49, "LengthChan": 489.63, "LengthROB": 482.09, "ComputedUn": null, "FrictionMo": "Horiz Mann n", "SteadyCont": 0.1, "SteadyExpa": 0.3, "UnsteadyCo": null, "UnsteadyEx": null, "MinorLoss": null, "Skew": null, "LeveeLeftS": null, "LeveeLeftE": null, "LeveeRight": null, "LeveeRigh1": null, "HPVertSlic": 20, "HPStartEle": 592.87, "HPVertIncr": 0.81, "HPROBSlice": 5, "HPChanSlic": 5, "HPLOBSlice": 5, "PilotChann": null, "PilotChan1": null, "PilotChan2": null, "IceJamChan": null, "IceJamOver": null, "IceFixedMa": null, "IceThickne": null, "IceThickn1": null, "IceThickn2": null, "IceMannnLe": null, "IceMannnCh": null, "IceMannnRi": null, "IceSpecifi": null, "IceFrictio": null, "IcePorosit": null, "IceK1": null, "IceMaxMean": null, "IceCohesio": null, "Stationing": 0.0, "CutlinetoX": 1.000001 }, "geometry": { "type": "MultiLineString", "coordinates": [ [ [ 3127476.700135949999094, 10085182.410560600459576 ], [ 3127269.833095610141754, 10085117.766004800796509 ], [ 3127108.169048860203475, 10085071.630598399788141 ] ] ] } },
{ "type": "Feature", "properties": { "FID": 1, "Count": 3, "Length": 419.52470965399999, "River": "Tannehill", "Reach": "TAN 3", "RiverStati": "22140", "NodeName": null, "LastEdited": "01Oct2012 10:08:13", "NodeDescri": "Includes Channel Survey Section TAN_XS_3900 surveyed on 7-27-11", "LeftBank": 223.14, "RightBank": 264.45, "LengthLOB": 454.07, "LengthChan": 492.54, "LengthROB": 500.71, "ComputedUn": null, "FrictionMo": "Horiz Mann n", "SteadyCont": 0.1, "SteadyExpa": 0.3, "UnsteadyCo": null, "UnsteadyEx": null, "MinorLoss": null, "Skew": null, "LeveeLeftS": null, "LeveeLeftE": null, "LeveeRight": null, "LeveeRigh1": null, "HPVertSlic": 23, "HPStartEle": 586.63, "HPVertIncr": 1.0, "HPROBSlice": 5, "HPChanSlic": 5, "HPLOBSlice": 5, "PilotChann": null, "PilotChan1": null, "PilotChan2": null, "IceJamChan": null, "IceJamOver": null, "IceFixedMa": null, "IceThickne": null, "IceThickn1": null, "IceThickn2": null, "IceMannnLe": null, "IceMannnCh": null, "IceMannnRi": null, "IceSpecifi": null, "IceFrictio": null, "IcePorosit": null, "IceK1": null, "IceMaxMean": null, "IceCohesio": null, "Stationing": 0.0, "CutlinetoX": 1.000011 }, "geometry": { "type": "MultiLineString", "coordinates": [ [ [ 3127780.309436860028654, 10085030.666769599542022 ], [ 3127732.946014519780874, 10084953.348354699090123 ], [ 3127437.186107370071113, 10084809.577316800132394 ] ] ] } },
{ "type": "Feature", "properties": { "FID": 2, "Count": 3, "Length": 317.755693366, "River": "Tannehill", "Reach": "TAN 3", "RiverStati": "21647", "NodeName": null, "LastEdited": "01Oct2012 10:08:13", "NodeDescri": "From 2003 COA DEM", "LeftBank": 130.63, "RightBank": 213.75, "LengthLOB": 87.79, "LengthChan": 86.48, "LengthROB": 92.37, "ComputedUn": null, "FrictionMo": "Horiz Mann n", "SteadyCont": 0.3, "SteadyExpa": 0.5, "UnsteadyCo": null, "UnsteadyEx": null, "MinorLoss": null, "Skew": null, "LeveeLeftS": null, "LeveeLeftE": null, "LeveeRight": null, "LeveeRigh1": null, "HPVertSlic": 20, "HPStartEle": 584.26, "HPVertIncr": 0.89, "HPROBSlice": 5, "HPChanSlic": 5, "HPLOBSlice": 5, "PilotChann": null, "PilotChan1": null, "PilotChan2": null, "IceJamChan": null, "IceJamOver": null, "IceFixedMa": null, "IceThickne": null, "IceThickn1": null, "IceThickn2": null, "IceMannnLe": null, "IceMannnCh": null, "IceMannnRi": null, "IceSpecifi": null, "IceFrictio": null, "IcePorosit": null, "IceK1": null, "IceMaxMean": null, "IceCohesio": null, "Stationing": 0.0, "CutlinetoX": 0.9999864 }, "geometry": { "type": "MultiLineString", "coordinates": [ [ [ 3128065.450598869938403, 10084779.163007499650121 ], [ 3127949.230030780192465, 10084568.640134600922465 ], [ 3127891.050029019825161, 10084517.770157599821687 ] ] ] } },
{ "type": "Feature", "properties": { "FID": 3, "Count": 2, "Length": 350.56934649300001, "River": "Tannehill", "Reach": "TAN 3", "RiverStati": "21560", "NodeName": null, "LastEdited": "01Oct2012 10:08:13", "NodeDescri": "Includes Upstream Face Channel Survey Section TAN_STR_3800 surveyed on 7-26-11", "LeftBank": 117.34, "RightBank": 198.04, "LengthLOB": 86.99, "LengthChan": 83.93, "LengthROB": 87.54, "ComputedUn": null, "FrictionMo": "Horiz Mann n", "SteadyCont": 0.3, "SteadyExpa": 0.5, "UnsteadyCo": null, "UnsteadyEx": null, "MinorLoss": null, "Skew": null, "LeveeLeftS": null, "LeveeLeftE": null, "LeveeRight": null, "LeveeRigh1": null, "HPVertSlic": 20, "HPStartEle": 583.82, "HPVertIncr": 0.9, "HPROBSlice": 5, "HPChanSlic": 5, "HPLOBSlice": 5, "PilotChann": null, "PilotChan1": null, "PilotChan2": null, "IceJamChan": null, "IceJamOver": null, "IceFixedMa": null, "IceThickne": null, "IceThickn1": null, "IceThickn2": null, "IceMannnLe": null, "IceMannnCh": null, "IceMannnRi": null, "IceSpecifi": null, "IceFrictio": null, "IcePorosit": null, "IceK1": null, "IceMaxMean": null, "IceCohesio": null, "Stationing": 0.0, "CutlinetoX": 0.9999981 }, "geometry": { "type": "MultiLineString", "coordinates": [ [ [ 3128121.181786609813571, 10084712.369834 ], [ 3127960.858288359828293, 10084400.608318399637938 ] ] ] } },
{ "type": "Feature", "properties": { "FID": 4, "Count": 2, "Length": 360.35983234600002, "River": "Tannehill", "Reach": "TAN 3", "RiverStati": "21477", "NodeName": null, "LastEdited": "01Oct2012 10:08:13", "NodeDescri": "Channel invert was adjusted using downstream survey point (TAN_STR_3800)", "LeftBank": 148.91, "RightBank": 229.32, "LengthLOB": 45.64, "LengthChan": 35.45, "LengthROB": 24.21, "ComputedUn": null, "FrictionMo": "Horiz Mann n", "SteadyCont": 0.3, "SteadyExpa": 0.5, "UnsteadyCo": null, "UnsteadyEx": null, "MinorLoss": null, "Skew": null, "LeveeLeftS": null, "LeveeLeftE": null, "LeveeRight": null, "LeveeRigh1": null, "HPVertSlic": 20, "HPStartEle": 582.98, "HPVertIncr": 0.97, "HPROBSlice": 5, "HPChanSlic": 5, "HPLOBSlice": 5, "PilotChann": null, "PilotChan1": null, "PilotChan2": null, "IceJamChan": null, "IceJamOver": null, "IceFixedMa": null, "IceThickne": null, "IceThickn1": null, "IceThickn2": null, "IceMannnLe": null, "IceMannnCh": null, "IceMannnRi": null, "IceSpecifi": null, "IceFrictio": null, "IcePorosit": null, "IceK1": null, "IceMaxMean": null, "IceCohesio": null, "Stationing": 0.0, "CutlinetoX": 0.99999959999999999 }, "geometry": { "type": "MultiLineString", "coordinates": [ [ [ 3128196.702632950153202, 10084674.937166100367904 ], [ 3128022.297798019833863, 10084359.592652399092913 ] ] ] } },
{ "type": "Feature", "properties": { "FID": 5, "Count": 4, "Length": 295.81856808499998, "River": "Tannehill", "Reach": "TAN 3", "RiverStati": "21441", "NodeName": null, "LastEdited": "01Oct2012 10:08:13", "NodeDescri": "Includes Downstream Channel Survey Section TAN_STR_3800 surveyed on 7-26-11", "LeftBank": 88.66, "RightBank": 148.9, "LengthLOB": 180.15, "LengthChan": 172.93, "LengthROB": 159.98, "ComputedUn": null, "FrictionMo": "Basic Mann n", "SteadyCont": 0.1, "SteadyExpa": 0.3, "UnsteadyCo": null, "UnsteadyEx": null, "MinorLoss": null, "Skew": null, "LeveeLeftS": null, "LeveeLeftE": null, "LeveeRight": null, "LeveeRigh1": null, "HPVertSlic": 20, "HPStartEle": 582.2, "HPVertIncr": 0.89, "HPROBSlice": 5, "HPChanSlic": 5, "HPLOBSlice": 5, "PilotChann": null, "PilotChan1": null, "PilotChan2": null, "IceJamChan": null, "IceJamOver": null, "IceFixedMa": null, "IceThickne": null, "IceThickn1": null, "IceThickn2": null, "IceMannnLe": null, "IceMannnCh": null, "IceMannnRi": null, "IceSpecifi": null, "IceFrictio": null, "IcePorosit": null, "IceK1": null, "IceMaxMean": null, "IceCohesio": null, "Stationing": 0.0, "CutlinetoX": 0.9999951 }, "geometry": { "type": "MultiLineString", "coordinates": [ [ [ 3128226.705525700002909, 10084541.89674980007112 ], [ 3128134.279857529792935, 10084486.931636599823833 ], [ 3128091.238933119922876, 10084461.033722499385476 ], [ 3128019.970046769827604, 10084342.80003510043025 ] ] ] } },
{ "type": "Feature", "properties": { "FID": 6, "Count": 3, "Length": 319.94686623199999, "River": "Tannehill", "Reach": "TAN 3", "RiverStati": "21268", "NodeName": null, "LastEdited": "01Oct2012 10:08:13", "NodeDescri": "Includes Upstream Face Channel Survey Section TAN_STR_3700 surveyed on 7-26-11", "LeftBank": 127.48, "RightBank": 182.29, "LengthLOB": 13.29, "LengthChan": 13.94, "LengthROB": 14.78, "ComputedUn": null, "FrictionMo": "Basic Mann n", "SteadyCont": 0.1, "SteadyExpa": 0.3, "UnsteadyCo": null, "UnsteadyEx": null, "MinorLoss": null, "Skew": null, "LeveeLeftS": null, "LeveeLeftE": null, "LeveeRight": null, "LeveeRigh1": null, "HPVertSlic": 20, "HPStartEle": 581.7, "HPVertIncr": 0.91, "HPROBSlice": 5, "HPChanSlic": 5, "HPLOBSlice": 5, "PilotChann": null, "PilotChan1": null, "PilotChan2": null, "IceJamChan": null, "IceJamOver": null, "IceFixedMa": null, "IceThickne": null, "IceThickn1": null, "IceThickn2": null, "IceMannnLe": null, "IceMannnCh": null, "IceMannnRi": null, "IceSpecifi": null, "IceFrictio": null, "IcePorosit": null, "IceK1": null, "IceMaxMean": null, "IceCohesio": null, "Stationing": 0.0, "CutlinetoX": 0.9999902 }, "geometry": { "type": "MultiLineString", "coordinates": [ [ [ 3128347.536976949777454, 10084367.39578640088439 ], [ 3128229.894823770038784, 10084334.109763799235225 ], [ 3128036.214764940086752, 10084294.512730099260807 ] ] ] } },
{ "type": "Feature", "properties": { "FID": 7, "Count": 3, "Length": 314.57959320700002, "River": "Tannehill", "Reach": "TAN 3", "RiverStati": "21254", "NodeName": null, "LastEdited": "01Oct2012 10:08:13", "NodeDescri": "Channel invert was adjusted using downstream survey point (TAN_STR_3700)", "LeftBank": 129.39, "RightBank": 180.74, "LengthLOB": 80.38, "LengthChan": 77.17, "LengthROB": 67.53, "ComputedUn": null, "FrictionMo": "Basic Mann n", "SteadyCont": 0.1, "SteadyExpa": 0.3, "UnsteadyCo": null, "UnsteadyEx": null, "MinorLoss": null, "Skew": null, "LeveeLeftS": null, "LeveeLeftE": null, "LeveeRight": null, "LeveeRigh1": null, "HPVertSlic": 20, "HPStartEle": 582.07, "HPVertIncr": 0.91, "HPROBSlice": 5, "HPChanSlic": 5, "HPLOBSlice": 5, "PilotChann": null, "PilotChan1": null, "PilotChan2": null, "IceJamChan": null, "IceJamOver": null, "IceFixedMa": null, "IceThickne": null, "IceThickn1": null, "IceThickn2": null, "IceMannnLe": null, "IceMannnCh": null, "IceMannnRi": null, "IceSpecifi": null, "IceFrictio": null, "IcePorosit": null, "IceK1": null, "IceMaxMean": null, "IceCohesio": null, "Stationing": 0.0, "CutlinetoX": 0.9999987 }, "geometry": { "type": "MultiLineString", "coordinates": [ [ [ 3128348.984808700159192, 10084355.329209500923753 ], [ 3128229.765230860095471, 10084320.576982399448752 ], [ 3128043.749854859896004, 10084279.959937699139118 ] ] ] } },
{ "type": "Feature", "properties": { "FID": 8, "Count": 3, "Length": 383.69405073899998, "River": "Tannehill", "Reach": "TAN 3", "RiverStati": "21177", "NodeName": null, "LastEdited": "01Oct2012 10:08:13", "NodeDescri": "Includes Downstream Channel Survey Section TAN_STR_3700 surveyed on 7-26-11", "LeftBank": 221.08, "RightBank": 275.14, "LengthLOB": 207.05, "LengthChan": 232.65, "LengthROB": 244.88, "ComputedUn": null, "FrictionMo": "Basic Mann n", "SteadyCont": 0.1, "SteadyExpa": 0.3, "UnsteadyCo": null, "UnsteadyEx": null, "MinorLoss": null, "Skew": null, "LeveeLeftS": null, "LeveeLeftE": null, "LeveeRight": null, "LeveeRigh1": null, "HPVertSlic": 20, "HPStartEle": 579.75, "HPVertIncr": 1.0, "HPROBSlice": 5, "HPChanSlic": 5, "HPLOBSlice": 5, "PilotChann": null, "PilotChan1": null, "PilotChan2": null, "IceJamChan": null, "IceJamOver": null, "IceFixedMa": null, "IceThickne": null, "IceThickn1": null, "IceThickn2": null, "IceMannnLe": null, "IceMannnCh": null, "IceMannnRi": null, "IceSpecifi": null, "IceFrictio": null, "IcePorosit": null, "IceK1": null, "IceMaxMean": null, "IceCohesio": null, "Stationing": 0.0, "CutlinetoX": 1.000011 }, "geometry": { "type": "MultiLineString", "coordinates": [ [ [ 3128443.379961099941283, 10084310.499902900308371 ], [ 3128266.788778860121965, 10084241.218545300886035 ], [ 3128072.840019780211151, 10084236.819932099431753 ] ] ] } },
{ "type": "Feature", "properties": { "FID": 9, "Count": 3, "Length": 394.019657381, "River": "Tannehill", "Reach": "TAN 3", "RiverStati": "20944", "NodeName": null, "LastEdited": "01Oct2012 10:08:13", "NodeDescri": "From 2003 COA DEM", "LeftBank": 331.06, "RightBank": 359.39, "LengthLOB": 332.5, "LengthChan": 387.04, "LengthROB": 417.4, "ComputedUn": null, "FrictionMo": "Basic Mann n", "SteadyCont": 0.1, "SteadyExpa": 0.3, "UnsteadyCo": null, "UnsteadyEx": null, "MinorLoss": null, "Skew": null, "LeveeLeftS": null, "LeveeLeftE": null, "LeveeRight": null, "LeveeRigh1": null, "HPVertSlic": 24, "HPStartEle": 578.22, "HPVertIncr": 1.0, "HPROBSlice": 5, "HPChanSlic": 5, "HPLOBSlice": 5, "PilotChann": null, "PilotChan1": null, "PilotChan2": null, "IceJamChan": null, "IceJamOver": null, "IceFixedMa": null, "IceThickne": null, "IceThickn1": null, "IceThickn2": null, "IceMannnLe": null, "IceMannnCh": null, "IceMannnRi": null, "IceSpecifi": null, "IceFrictio": null, "IcePorosit": null, "IceK1": null, "IceMaxMean": null, "IceCohesio": null, "Stationing": 0.0, "CutlinetoX": 0.99999919999999998 }, "geometry": { "type": "MultiLineString", "coordinates": [ [ [ 3128489.419895280152559, 10084279.390056900680065 ], [ 3128270.009901029989123, 10084032.190092 ], [ 3128220.934211779851466, 10083991.906051900237799 ] ] ] } },
{ "type": "Feature", "properties": { "FID": 10, "Count": 4, "Length": 553.76314158100001, "River": "Tannehill", "Reach": "TAN 3", "RiverStati": "20557", "NodeName": null, "LastEdited": "25Dec2025 01:41:41", "NodeDescri": "From 2003 COA DEM", "LeftBank": 269.39, "RightBank": 329.82, "LengthLOB": 120.43, "LengthChan": 102.19, "LengthROB": 77.79, "ComputedUn": null, "FrictionMo": "Horiz Mann n", "SteadyCont": 0.1, "SteadyExpa": 0.3, "UnsteadyCo": null, "UnsteadyEx": null, "MinorLoss": null, "Skew": null, "LeveeLeftS": null, "LeveeLeftE": null, "LeveeRight": null, "LeveeRigh1": null, "HPVertSlic": 21, "HPStartEle": 578.84, "HPVertIncr": 1.0, "HPROBSlice": 5, "HPChanSlic": 5, "HPLOBSlice": 5, "PilotChann": null, "PilotChan1": null, "PilotChan2": null, "IceJamChan": null, "IceJamOver": null, "IceFixedMa": null, "IceThickne": null, "IceThickn1": null, "IceThickn2": null, "IceMannnLe": null, "IceMannnCh": null, "IceMannnRi": null, "IceSpecifi": null, "IceFrictio": null, "IcePorosit": null, "IceK1": null, "IceMaxMean": null, "IceCohesio": null, "Stationing": 0.0, "CutlinetoX": 1.000006 }, "geometry": { "type": "MultiLineString", "coordinates": [ [ [ 3128552.188142450060695, 10084156.577966600656509 ], [ 3128524.009393020067364, 10083956.285388199612498 ], [ 3128610.826804699841887, 10083851.010664399713278 ], [ 3128529.488384690135717, 10083651.944133400917053 ] ] ] } },
{ "type": "Feature", "properties": { "FID": 11, "Count": 3, "Length": 533.85689061899996, "River": "Tannehill", "Reach": "TAN 3", "RiverStati": "20455", "NodeName": null, "LastEdited": "25Dec2025 03:26:37", "NodeDescri": "From 2003 COA DEM", "LeftBank": 207.0, "RightBank": 264.03, "LengthLOB": 37.63, "LengthChan": 37.63, "LengthROB": 37.63, "ComputedUn": null, "FrictionMo": "Horiz Mann n", "SteadyCont": 0.1, "SteadyExpa": 0.3, "UnsteadyCo": null, "UnsteadyEx": null, "MinorLoss": null, "Skew": null, "LeveeLeftS": null, "LeveeLeftE": null, "LeveeRight": null, "LeveeRigh1": null, "HPVertSlic": 21, "HPStartEle": 577.14, "HPVertIncr": 1.0, "HPROBSlice": 5, "HPChanSlic": 5, "HPLOBSlice": 5, "PilotChann": null, "PilotChan1": null, "PilotChan2": null, "IceJamChan": null, "IceJamOver": null, "IceFixedMa": null, "IceThickne": null, "IceThickn1": null, "IceThickn2": null, "IceMannnLe": null, "IceMannnCh": null, "IceMannnRi": null, "IceSpecifi": null, "IceFrictio": null, "IcePorosit": null, "IceK1": null, "IceMaxMean": null, "IceCohesio": null, "Stationing": 0.0, "CutlinetoX": 0.9999942 }, "geometry": { "type": "MultiLineString", "coordinates": [ [ [ 3128678.329950530081987, 10084135.470069199800491 ], [ 3128683.073707450181246, 10083836.741664 ], [ 3128592.330122529994696, 10083619.870050499215722 ] ] ] } },
{ "type": "Feature", "properties": { "FID": 12, "Count": 3, "Length": 517.76652878799996, "River": "Tannehill", "Reach": "TAN 3", "RiverStati": "20418", "NodeName": null, "LastEdited": "25Dec2025 01:50:55", "NodeDescri": null, "LeftBank": 183.35, "RightBank": 232.8, "LengthLOB": 15.03, "LengthChan": 15.03, "LengthROB": 15.03, "ComputedUn": null, "FrictionMo": "Horiz Mann n", "SteadyCont": 0.1, "SteadyExpa": 0.3, "UnsteadyCo": 0.0, "UnsteadyEx": 0.0, "MinorLoss": null, "Skew": null, "LeveeLeftS": null, "LeveeLeftE": null, "LeveeRight": null, "LeveeRigh1": null, "HPVertSlic": 21, "HPStartEle": 577.19, "HPVertIncr": 1.0, "HPROBSlice": 5, "HPChanSlic": 5, "HPLOBSlice": 5, "PilotChann": null, "PilotChan1": null, "PilotChan2": null, "IceJamChan": null, "IceJamOver": null, "IceFixedMa": null, "IceThickne": null, "IceThickn1": null, "IceThickn2": null, "IceMannnLe": null, "IceMannnCh": null, "IceMannnRi": null, "IceSpecifi": null, "IceFrictio": null, "IcePorosit": null, "IceK1": null, "IceMaxMean": null, "IceCohesio": null, "Stationing": 0.0, "CutlinetoX": 1.0 }, "geometry": { "type": "MultiLineString", "coordinates": [ [ [ 3128763.310942550189793, 10084104.257740600034595 ], [ 3128716.716647849883884, 10083885.885090600699186 ], [ 3128594.822880120016634, 10083617.819117199629545 ] ] ] } },
{ "type": "Feature", "properties": { "FID": 13, "Count": 3, "Length": 522.11034276199996, "River": "Tannehill", "Reach": "TAN 3", "RiverStati": "20403", "NodeName": null, "LastEdited": "25Dec2025 03:24:35", "NodeDescri": null, "LeftBank": 179.59, "RightBank": 236.83, "LengthLOB": 12.02, "LengthChan": 12.02, "LengthROB": 12.02, "ComputedUn": null, "FrictionMo": "Horiz Mann n", "SteadyCont": 0.1, "SteadyExpa": 0.3, "UnsteadyCo": 0.0, "UnsteadyEx": 0.0, "MinorLoss": null, "Skew": null, "LeveeLeftS": null, "LeveeLeftE": null, "LeveeRight": null, "LeveeRigh1": null, "HPVertSlic": 22, "HPStartEle": 577.19, "HPVertIncr": 1.0, "HPROBSlice": 5, "HPChanSlic": 5, "HPLOBSlice": 5, "PilotChann": null, "PilotChan1": null, "PilotChan2": null, "IceJamChan": null, "IceJamOver": null, "IceFixedMa": null, "IceThickne": null, "IceThickn1": null, "IceThickn2": null, "IceMannnLe": null, "IceMannnCh": null, "IceMannnRi": null, "IceSpecifi": null, "IceFrictio": null, "IcePorosit": null, "IceK1": null, "IceMaxMean": null, "IceCohesio": null, "Stationing": 0.0, "CutlinetoX": 1.000001 }, "geometry": { "type": "MultiLineString", "coordinates": [ [ [ 3128777.980723650194705, 10084101.127641199156642 ], [ 3128730.982293710112572, 10083880.86093769967556 ], [ 3128597.315637699794024, 10083615.768183900043368 ] ] ] } },
{ "type": "Feature", "properties": { "FID": 14, "Count": 3, "Length": 524.60303637899995, "River": "Tannehill", "Reach": "TAN 3", "RiverStati": "20391", "NodeName": null, "LastEdited": "25Dec2025 01:51:20", "NodeDescri": null, "LeftBank": 183.16, "RightBank": 235.43, "LengthLOB": 30.7, "LengthChan": 30.7, "LengthROB": 30.7, "ComputedUn": null, "FrictionMo": "Horiz Mann n", "SteadyCont": 0.1, "SteadyExpa": 0.3, "UnsteadyCo": 0.0, "UnsteadyEx": 0.0, "MinorLoss": null, "Skew": null, "LeveeLeftS": null, "LeveeLeftE": null, "LeveeRight": null, "LeveeRigh1": null, "HPVertSlic": 22, "HPStartEle": 577.16, "HPVertIncr": 1.0, "HPROBSlice": 5, "HPChanSlic": 5, "HPLOBSlice": 5, "PilotChann": null, "PilotChan1": null, "PilotChan2": null, "IceJamChan": null, "IceJamOver": null, "IceFixedMa": null, "IceThickne": null, "IceThickn1": null, "IceThickn2": null, "IceMannnLe": null, "IceMannnCh": null, "IceMannnRi": null, "IceSpecifi": null, "IceFrictio": null, "IcePorosit": null, "IceK1": null, "IceMaxMean": null, "IceCohesio": null, "Stationing": 0.0, "CutlinetoX": 1.0 }, "geometry": { "type": "MultiLineString", "coordinates": [ [ [ 3128789.716548540163785, 10084098.623561700806022 ], [ 3128742.394810399971902, 10083876.841615399345756 ], [ 3128608.303433489985764, 10083610.906539099290967 ] ] ] } },
{ "type": "Feature", "properties": { "FID": 15, "Count": 3, "Length": 532.34979179699997, "River": "Tannehill", "Reach": "TAN 3", "RiverStati": "20360", "NodeName": null, "LastEdited": "25Dec2025 01:51:34", "NodeDescri": null, "LeftBank": 186.98, "RightBank": 242.35, "LengthLOB": 312.7, "LengthChan": 312.7, "LengthROB": 312.7, "ComputedUn": null, "FrictionMo": "Horiz Mann n", "SteadyCont": 0.1, "SteadyExpa": 0.3, "UnsteadyCo": 0.0, "UnsteadyEx": 0.0, "MinorLoss": null, "Skew": null, "LeveeLeftS": null, "LeveeLeftE": null, "LeveeRight": null, "LeveeRigh1": null, "HPVertSlic": 22, "HPStartEle": 576.97, "HPVertIncr": 1.0, "HPROBSlice": 5, "HPChanSlic": 5, "HPLOBSlice": 5, "PilotChann": null, "PilotChan1": null, "PilotChan2": null, "IceJamChan": null, "IceJamOver": null, "IceFixedMa": null, "IceThickne": null, "IceThickn1": null, "IceThickn2": null, "IceMannnLe": null, "IceMannnCh": null, "IceMannnRi": null, "IceSpecifi": null, "IceFrictio": null, "IcePorosit": null, "IceK1": null, "IceMaxMean": null, "IceCohesio": null, "Stationing": 0.0, "CutlinetoX": 1.0 }, "geometry": { "type": "MultiLineString", "coordinates": [ [ [ 3128819.056110749952495, 10084092.363362800329924 ], [ 3128770.926102110184729, 10083866.793309699743986 ], [ 3128635.090815110132098, 10083597.399645099416375 ] ] ] } },
{ "type": "Feature", "properties": { "FID": 16, "Count": 2, "Length": 621.18328912000004, "River": "Tannehill", "Reach": "TAN 3", "RiverStati": "20047", "NodeName": null, "LastEdited": "25Dec2025 01:49:01", "NodeDescri": "From 2003 COA DEM", "LeftBank": 310.42, "RightBank": 358.72, "LengthLOB": 373.7, "LengthChan": 373.7, "LengthROB": 373.7, "ComputedUn": null, "FrictionMo": "Horiz Mann n", "SteadyCont": 0.1, "SteadyExpa": 0.3, "UnsteadyCo": null, "UnsteadyEx": null, "MinorLoss": null, "Skew": null, "LeveeLeftS": null, "LeveeLeftE": null, "LeveeRight": null, "LeveeRigh1": null, "HPVertSlic": 28, "HPStartEle": 573.72, "HPVertIncr": 1.0, "HPROBSlice": 5, "HPChanSlic": 5, "HPLOBSlice": 5, "PilotChann": null, "PilotChan1": null, "PilotChan2": null, "IceJamChan": null, "IceJamOver": null, "IceFixedMa": null, "IceThickne": null, "IceThickn1": null, "IceThickn2": null, "IceMannnLe": null, "IceMannnCh": null, "IceMannnRi": null, "IceSpecifi": null, "IceFrictio": null, "IcePorosit": null, "IceK1": null, "IceMaxMean": null, "IceCohesio": null, "Stationing": 0.0, "CutlinetoX": 1.000005 }, "geometry": { "type": "MultiLineString", "coordinates": [ [ [ 3129012.886696119792759, 10083968.285692300647497 ], [ 3128854.859125030227005, 10083367.539518399164081 ] ] ] } },
{ "type": "Feature", "properties": { "FID": 17, "Count": 4, "Length": 813.23482662699996, "River": "Tannehill", "Reach": "TAN 3", "RiverStati": "19673", "NodeName": null, "LastEdited": "25Dec2025 01:52:43", "NodeDescri": "From 2003 COA DEM", "LeftBank": 571.99, "RightBank": 620.58, "LengthLOB": 257.81, "LengthChan": 257.81, "LengthROB": 257.81, "ComputedUn": null, "FrictionMo": "Horiz Mann n", "SteadyCont": 0.1, "SteadyExpa": 0.3, "UnsteadyCo": null, "UnsteadyEx": null, "MinorLoss": null, "Skew": null, "LeveeLeftS": null, "LeveeLeftE": null, "LeveeRight": null, "LeveeRigh1": null, "HPVertSlic": 32, "HPStartEle": 570.97, "HPVertIncr": 1.0, "HPROBSlice": 5, "HPChanSlic": 5, "HPLOBSlice": 5, "PilotChann": null, "PilotChan1": null, "PilotChan2": null, "IceJamChan": null, "IceJamOver": null, "IceFixedMa": null, "IceThickne": null, "IceThickn1": null, "IceThickn2": null, "IceMannnLe": null, "IceMannnCh": null, "IceMannnRi": null, "IceSpecifi": null, "IceFrictio": null, "IcePorosit": null, "IceK1": null, "IceMaxMean": null, "IceCohesio": null, "Stationing": 0.0, "CutlinetoX": 1.000006 }, "geometry": { "type": "MultiLineString", "coordinates": [ [ [ 3129049.360048349946737, 10084071.440013499930501 ], [ 3129241.520097109954804, 10083567.629997499287128 ], [ 3129281.308075279928744, 10083353.757065700367093 ], [ 3129291.638124930206686, 10083298.229790700599551 ] ] ] } },
{ "type": "Feature", "properties": { "FID": 18, "Count": 6, "Length": 678.25951618299996, "River": "Tannehill", "Reach": "TAN 3", "RiverStati": "19416", "NodeName": null, "LastEdited": "29Dec2025 12:17:47", "NodeDescri": null, "LeftBank": 524.77, "RightBank": 576.28, "LengthLOB": 41.22, "LengthChan": 41.22, "LengthROB": 41.22, "ComputedUn": null, "FrictionMo": "Horiz Mann n", "SteadyCont": 0.1, "SteadyExpa": 0.3, "UnsteadyCo": 0.0, "UnsteadyEx": 0.0, "MinorLoss": null, "Skew": null, "LeveeLeftS": null, "LeveeLeftE": null, "LeveeRight": null, "LeveeRigh1": null, "HPVertSlic": 31, "HPStartEle": 571.11, "HPVertIncr": 1.0, "HPROBSlice": 5, "HPChanSlic": 5, "HPLOBSlice": 5, "PilotChann": null, "PilotChan1": null, "PilotChan2": null, "IceJamChan": null, "IceJamOver": null, "IceFixedMa": null, "IceThickne": null, "IceThickn1": null, "IceThickn2": null, "IceMannnLe": null, "IceMannnCh": null, "IceMannnRi": null, "IceSpecifi": null, "IceFrictio": null, "IcePorosit": null, "IceK1": null, "IceMaxMean": null, "IceCohesio": null, "Stationing": 0.0, "CutlinetoX": 0.99999930000000004 }, "geometry": { "type": "MultiLineString", "coordinates": [ [ [ 3129249.772616019938141, 10084019.357559099793434 ], [ 3129387.385279680136591, 10083686.707176800817251 ], [ 3129388.428176260087639, 10083629.852063599973917 ], [ 3129484.529776060022414, 10083542.824828900396824 ], [ 3129522.305488669779152, 10083535.494696300476789 ], [ 3129572.323717339895666, 10083456.76714 ] ] ] } },
{ "type": "Feature", "properties": { "FID": 19, "Count": 6, "Length": 670.93611700199995, "River": "Tannehill", "Reach": "TAN 3", "RiverStati": "19374", "NodeName": null, "LastEdited": "28Dec2025 20:00:12", "NodeDescri": null, "LeftBank": 500.18, "RightBank": 546.09, "LengthLOB": 68.66, "LengthChan": 68.66, "LengthROB": 68.66, "ComputedUn": null, "FrictionMo": "Horiz Mann n", "SteadyCont": 0.3, "SteadyExpa": 0.5, "UnsteadyCo": 0.0, "UnsteadyEx": 0.0, "MinorLoss": null, "Skew": null, "LeveeLeftS": null, "LeveeLeftE": null, "LeveeRight": null, "LeveeRigh1": null, "HPVertSlic": 28, "HPStartEle": 570.96, "HPVertIncr": 1.0, "HPROBSlice": 5, "HPChanSlic": 5, "HPLOBSlice": 5, "PilotChann": null, "PilotChan1": null, "PilotChan2": null, "IceJamChan": null, "IceJamOver": null, "IceFixedMa": null, "IceThickne": null, "IceThickn1": null, "IceThickn2": null, "IceMannnLe": null, "IceMannnCh": null, "IceMannnRi": null, "IceSpecifi": null, "IceFrictio": null, "IcePorosit": null, "IceK1": null, "IceMaxMean": null, "IceCohesio": null, "Stationing": 0.0, "CutlinetoX": 1.0 }, "geometry": { "type": "MultiLineString", "coordinates": [ [ [ 3129286.734693380072713, 10084034.648237200453877 ], [ 3129427.239782500080764, 10083695.006009800359607 ], [ 3129428.104098979849368, 10083647.886466 ], [ 3129503.106372280046344, 10083579.96626009978354 ], [ 3129546.832101580221206, 10083571.481565300375223 ], [ 3129606.101486099883914, 10083478.19289980083704 ] ] ] } },
{ "type": "Feature", "properties": { "FID": 20, "Count": 4, "Length": 610.05346065399999, "River": "Tannehill", "Reach": "TAN 3", "RiverStati": "19306", "NodeName": null, "LastEdited": "28Dec2025 20:00:03", "NodeDescri": null, "LeftBank": 421.07, "RightBank": 455.41, "LengthLOB": 240.68, "LengthChan": 240.68, "LengthROB": 240.68, "ComputedUn": null, "FrictionMo": "Horiz Mann n", "SteadyCont": 0.3, "SteadyExpa": 0.5, "UnsteadyCo": 0.0, "UnsteadyEx": 0.0, "MinorLoss": null, "Skew": null, "LeveeLeftS": null, "LeveeLeftE": null, "LeveeRight": null, "LeveeRigh1": null, "HPVertSlic": 27, "HPStartEle": 570.84, "HPVertIncr": 1.0, "HPROBSlice": 5, "HPChanSlic": 5, "HPLOBSlice": 5, "PilotChann": null, "PilotChan1": null, "PilotChan2": null, "IceJamChan": null, "IceJamOver": null, "IceFixedMa": null, "IceThickne": null, "IceThickn1": null, "IceThickn2": null, "IceMannnLe": null, "IceMannnCh": null, "IceMannnRi": null, "IceSpecifi": null, "IceFrictio": null, "IcePorosit": null, "IceK1": null, "IceMaxMean": null, "IceCohesio": null, "Stationing": 0.0, "CutlinetoX": 0.99999990000000005 }, "geometry": { "type": "MultiLineString", "coordinates": [ [ [ 3129341.628168140072376, 10084026.140047799795866 ], [ 3129409.054754570126534, 10083829.811202 ], [ 3129565.365327119827271, 10083583.237476099282503 ], [ 3129624.63471163995564, 10083489.94881059974432 ] ] ] } },
{ "type": "Feature", "properties": { "FID": 21, "Count": 3, "Length": 415.42964406499999, "River": "Tannehill", "Reach": "TAN 3", "RiverStati": "19065", "NodeName": null, "LastEdited": "01Oct2012 10:08:13", "NodeDescri": "Includes Downstream Channel Survey Section from Bartholomew Park Pond Survey", "LeftBank": 174.17, "RightBank": 272.36, "LengthLOB": 174.8, "LengthChan": 174.8, "LengthROB": 174.8, "ComputedUn": null, "FrictionMo": "Basic Mann n", "SteadyCont": 0.1, "SteadyExpa": 0.3, "UnsteadyCo": null, "UnsteadyEx": null, "MinorLoss": null, "Skew": null, "LeveeLeftS": null, "LeveeLeftE": null, "LeveeRight": null, "LeveeRigh1": null, "HPVertSlic": 20, "HPStartEle": 567.69, "HPVertIncr": 0.95, "HPROBSlice": 5, "HPChanSlic": 5, "HPLOBSlice": 5, "PilotChann": null, "PilotChan1": null, "PilotChan2": null, "IceJamChan": null, "IceJamOver": null, "IceFixedMa": null, "IceThickne": null, "IceThickn1": null, "IceThickn2": null, "IceMannnLe": null, "IceMannnCh": null, "IceMannnRi": null, "IceSpecifi": null, "IceFrictio": null, "IcePorosit": null, "IceK1": null, "IceMaxMean": null, "IceCohesio": null, "Stationing": 0.0, "CutlinetoX": 0.99999919999999998 }, "geometry": { "type": "MultiLineString", "coordinates": [ [ [ 3129653.810611110180616, 10083939.114490799605846 ], [ 3129801.044240519870073, 10083630.702377900481224 ], [ 3129763.961965609807521, 10083567.039119400084019 ] ] ] } },
{ "type": "Feature", "properties": { "FID": 22, "Count": 3, "Length": 469.64785342699997, "River": "Tannehill", "Reach": "TAN 3", "RiverStati": "18890", "NodeName": null, "LastEdited": "30Jan2026 12:06:58", "NodeDescri": "From 2003 COA DEM", "LeftBank": 160.92, "RightBank": 259.26, "LengthLOB": 110.79, "LengthChan": 99.52, "LengthROB": 84.21, "ComputedUn": null, "FrictionMo": "Horiz Mann n", "SteadyCont": 0.1, "SteadyExpa": 0.3, "UnsteadyCo": null, "UnsteadyEx": null, "MinorLoss": null, "Skew": null, "LeveeLeftS": null, "LeveeLeftE": null, "LeveeRight": null, "LeveeRigh1": null, "HPVertSlic": 23, "HPStartEle": 566.28, "HPVertIncr": 1.0, "HPROBSlice": 5, "HPChanSlic": 5, "HPLOBSlice": 5, "PilotChann": null, "PilotChan1": null, "PilotChan2": null, "IceJamChan": null, "IceJamOver": null, "IceFixedMa": null, "IceThickne": null, "IceThickn1": null, "IceThickn2": null, "IceMannnLe": null, "IceMannnCh": null, "IceMannnRi": null, "IceSpecifi": null, "IceFrictio": null, "IcePorosit": null, "IceK1": null, "IceMaxMean": null, "IceCohesio": null, "Stationing": 0.0, "CutlinetoX": 0.9999955 }, "geometry": { "type": "MultiLineString", "coordinates": [ [ [ 3129917.089940189849585, 10083980.385405600070953 ], [ 3129917.089940189849585, 10083721.123128799721599 ], [ 3129782.330039110034704, 10083559.562428399920464 ] ] ] } },
{ "type": "Feature", "properties": { "FID": 23, "Count": 3, "Length": 442.43515657299997, "River": "Tannehill", "Reach": "TAN 3", "RiverStati": "18791", "NodeName": null, "LastEdited": "30Jan2026 12:06:58", "NodeDescri": "From 2003 COA DEM\r\n\r\nContraction coef. of 0.01 used, critical depth for all profiles downstream.", "LeftBank": 89.6, "RightBank": 143.36, "LengthLOB": 117.64, "LengthChan": 162.68, "LengthROB": 201.66, "ComputedUn": null, "FrictionMo": "Horiz Mann n", "SteadyCont": 0.1, "SteadyExpa": 0.3, "UnsteadyCo": null, "UnsteadyEx": null, "MinorLoss": null, "Skew": null, "LeveeLeftS": null, "LeveeLeftE": null, "LeveeRight": null, "LeveeRigh1": null, "HPVertSlic": 20, "HPStartEle": 565.5, "HPVertIncr": 1.0, "HPROBSlice": 5, "HPChanSlic": 5, "HPLOBSlice": 5, "PilotChann": null, "PilotChan1": null, "PilotChan2": null, "IceJamChan": null, "IceJamOver": null, "IceFixedMa": null, "IceThickne": null, "IceThickn1": null, "IceThickn2": null, "IceMannnLe": null, "IceMannnCh": null, "IceMannnRi": null, "IceSpecifi": null, "IceFrictio": null, "IcePorosit": null, "IceK1": null, "IceMaxMean": null, "IceCohesio": null, "Stationing": 0.0, "CutlinetoX": 0.999989 }, "geometry": { "type": "MultiLineString", "coordinates": [ [ [ 3130059.310128199867904, 10083878.859033899381757 ], [ 3129988.782710189931095, 10083710.875774 ], [ 3129806.693835529964417, 10083524.939794199541211 ] ] ] } },
{ "type": "Feature", "properties": { "FID": 24, "Count": 4, "Length": 634.84076664099996, "River": "Tannehill", "Reach": "TAN 3", "RiverStati": "18628", "NodeName": null, "LastEdited": "30Jan2026 12:06:58", "NodeDescri": "Includes Channel Survey Section TAN_XS_3600 surveyed on 7-26-11", "LeftBank": 93.89, "RightBank": 147.49, "LengthLOB": 162.19, "LengthChan": 143.79, "LengthROB": 100.75, "ComputedUn": null, "FrictionMo": "Horiz Mann n", "SteadyCont": 0.1, "SteadyExpa": 0.3, "UnsteadyCo": null, "UnsteadyEx": null, "MinorLoss": null, "Skew": null, "LeveeLeftS": null, "LeveeLeftE": null, "LeveeRight": null, "LeveeRigh1": null, "HPVertSlic": 22, "HPStartEle": 564.25, "HPVertIncr": 1.0, "HPROBSlice": 5, "HPChanSlic": 5, "HPLOBSlice": 5, "PilotChann": null, "PilotChan1": null, "PilotChan2": null, "IceJamChan": null, "IceJamOver": null, "IceFixedMa": null, "IceThickne": null, "IceThickn1": null, "IceThickn2": null, "IceMannnLe": null, "IceMannnCh": null, "IceMannnRi": null, "IceSpecifi": null, "IceFrictio": null, "IcePorosit": null, "IceK1": null, "IceMaxMean": null, "IceCohesio": null, "Stationing": 0.0, "CutlinetoX": 1.000001 }, "geometry": { "type": "MultiLineString", "coordinates": [ [ [ 3130126.795229449868202, 10083883.783892799168825 ], [ 3130128.661367449909449, 10083811.933970900252461 ], [ 3130197.417135450057685, 10083729.725801900029182 ], [ 3129813.268297450151294, 10083484.410347700119019 ] ] ] } },
{ "type": "Feature", "properties": { "FID": 25, "Count": 3, "Length": 678.35710030400003, "River": "Tannehill", "Reach": "TAN 3", "RiverStati": "18484", "NodeName": null, "LastEdited": "30Jan2026 11:50:57", "NodeDescri": "From 2003 COA DEM", "LeftBank": 74.28, "RightBank": 112.9, "LengthLOB": 177.07, "LengthChan": 167.94, "LengthROB": 155.83, "ComputedUn": null, "FrictionMo": "Horiz Mann n", "SteadyCont": 0.01, "SteadyExpa": 0.03, "UnsteadyCo": null, "UnsteadyEx": null, "MinorLoss": null, "Skew": null, "LeveeLeftS": null, "LeveeLeftE": null, "LeveeRight": null, "LeveeRigh1": null, "HPVertSlic": 25, "HPStartEle": 560.77, "HPVertIncr": 1.0, "HPROBSlice": 5, "HPChanSlic": 5, "HPLOBSlice": 5, "PilotChann": null, "PilotChan1": null, "PilotChan2": null, "IceJamChan": null, "IceJamOver": null, "IceFixedMa": null, "IceThickne": null, "IceThickn1": null, "IceThickn2": null, "IceMannnLe": null, "IceMannnCh": null, "IceMannnRi": null, "IceSpecifi": null, "IceFrictio": null, "IcePorosit": null, "IceK1": null, "IceMaxMean": null, "IceCohesio": null, "Stationing": 0.0, "CutlinetoX": 0.9999958 }, "geometry": { "type": "MultiLineString", "coordinates": [ [ [ 3130336.290545360185206, 10083862.18879159912467 ], [ 3130226.011238370090723, 10083668.559257600456476 ], [ 3129831.057960030157119, 10083441.589239099994302 ] ] ] } },
{ "type": "Feature", "properties": { "FID": 26, "Count": 3, "Length": 753.93742354300002, "River": "Tannehill", "Reach": "TAN 3", "RiverStati": "18316", "NodeName": null, "LastEdited": "30Jan2026 11:50:57", "NodeDescri": "From 2003 COA DEM", "LeftBank": 67.93, "RightBank": 124.04, "LengthLOB": 428.01, "LengthChan": 411.55, "LengthROB": 384.25, "ComputedUn": null, "FrictionMo": "Horiz Mann n", "SteadyCont": 0.01, "SteadyExpa": 0.03, "UnsteadyCo": null, "UnsteadyEx": null, "MinorLoss": null, "Skew": null, "LeveeLeftS": null, "LeveeLeftE": null, "LeveeRight": null, "LeveeRigh1": null, "HPVertSlic": 22, "HPStartEle": 558.24, "HPVertIncr": 1.0, "HPROBSlice": 5, "HPChanSlic": 5, "HPLOBSlice": 5, "PilotChann": null, "PilotChan1": null, "PilotChan2": null, "IceJamChan": null, "IceJamOver": null, "IceFixedMa": null, "IceThickne": null, "IceThickn1": null, "IceThickn2": null, "IceMannnLe": null, "IceMannnCh": null, "IceMannnRi": null, "IceSpecifi": null, "IceFrictio": null, "IcePorosit": null, "IceK1": null, "IceMaxMean": null, "IceCohesio": null, "Stationing": 0.0, "CutlinetoX": 0.9999966 }, "geometry": { "type": "MultiLineString", "coordinates": [ [ [ 3130503.929973859805614, 10083745.190009800717235 ], [ 3130392.370157610159367, 10083667.65998120047152 ], [ 3129837.469364520162344, 10083395.425945600494742 ] ] ] } },
{ "type": "Feature", "properties": { "FID": 27, "Count": 4, "Length": 659.15741020999997, "River": "Tannehill", "Reach": "TAN 3", "RiverStati": "17905", "NodeName": null, "LastEdited": "01Oct2012 10:08:13", "NodeDescri": "From 2003 COA DEM", "LeftBank": 91.61, "RightBank": 162.54, "LengthLOB": 59.73, "LengthChan": 58.88, "LengthROB": 59.69, "ComputedUn": null, "FrictionMo": "Basic Mann n", "SteadyCont": 0.3, "SteadyExpa": 0.5, "UnsteadyCo": null, "UnsteadyEx": null, "MinorLoss": null, "Skew": null, "LeveeLeftS": null, "LeveeLeftE": null, "LeveeRight": null, "LeveeRigh1": null, "HPVertSlic": 27, "HPStartEle": 553.16, "HPVertIncr": 1.0, "HPROBSlice": 5, "HPChanSlic": 5, "HPLOBSlice": 5, "PilotChann": null, "PilotChan1": null, "PilotChan2": null, "IceJamChan": null, "IceJamOver": null, "IceFixedMa": null, "IceThickne": null, "IceThickn1": null, "IceThickn2": null, "IceMannnLe": null, "IceMannnCh": null, "IceMannnRi": null, "IceSpecifi": null, "IceFrictio": null, "IcePorosit": null, "IceK1": null, "IceMaxMean": null, "IceCohesio": null, "Stationing": 0.0, "CutlinetoX": 0.9999961 }, "geometry": { "type": "MultiLineString", "coordinates": [ [ [ 3130477.360145110171288, 10083279.270009899511933 ], [ 3130309.014025109820068, 10083324.672478200867772 ], [ 3130133.684651359915733, 10083342.850919499993324 ], [ 3129825.928705200087279, 10083364.650416599586606 ] ] ] } },
{ "type": "Feature", "properties": { "FID": 28, "Count": 4, "Length": 351.07645713400001, "River": "Tannehill", "Reach": "TAN 3", "RiverStati": "17846", "NodeName": null, "LastEdited": "01Oct2012 10:08:13", "NodeDescri": "Includes Upstream Face Channel Survey Section TAN_STR_3500 surveyed on 7-27-11", "LeftBank": 95.09, "RightBank": 160.09, "LengthLOB": 70.46, "LengthChan": 72.09, "LengthROB": 72.57, "ComputedUn": null, "FrictionMo": "Basic Mann n", "SteadyCont": 0.3, "SteadyExpa": 0.5, "UnsteadyCo": null, "UnsteadyEx": null, "MinorLoss": null, "Skew": null, "LeveeLeftS": null, "LeveeLeftE": null, "LeveeRight": null, "LeveeRigh1": null, "HPVertSlic": 20, "HPStartEle": 552.25, "HPVertIncr": 0.95, "HPROBSlice": 5, "HPChanSlic": 5, "HPLOBSlice": 5, "PilotChann": null, "PilotChan1": null, "PilotChan2": null, "IceJamChan": null, "IceJamOver": null, "IceFixedMa": null, "IceThickne": null, "IceThickn1": null, "IceThickn2": null, "IceMannnLe": null, "IceMannnCh": null, "IceMannnRi": null, "IceSpecifi": null, "IceFrictio": null, "IcePorosit": null, "IceK1": null, "IceMaxMean": null, "IceCohesio": null, "Stationing": 0.0, "CutlinetoX": 0.9999899 }, "geometry": { "type": "MultiLineString", "coordinates": [ [ [ 3130463.583925949875265, 10083220.076230699196458 ], [ 3130296.778157189954072, 10083267.709337500855327 ], [ 3130127.539650530088693, 10083295.300817800685763 ], [ 3130121.489554029889405, 10083296.287183899432421 ] ] ] } },
{ "type": "Feature", "properties": { "FID": 29, "Count": 3, "Length": 341.25671403600001, "River": "Tannehill", "Reach": "TAN 3", "RiverStati": "17774", "NodeName": null, "LastEdited": "01Oct2012 10:08:13", "NodeDescri": "Channel invert was adjusted using downstream survey point (TAN_STR_3500)", "LeftBank": 106.56, "RightBank": 162.8, "LengthLOB": 112.98, "LengthChan": 124.99, "LengthROB": 131.79, "ComputedUn": null, "FrictionMo": "Basic Mann n", "SteadyCont": 0.3, "SteadyExpa": 0.5, "UnsteadyCo": null, "UnsteadyEx": null, "MinorLoss": null, "Skew": null, "LeveeLeftS": null, "LeveeLeftE": null, "LeveeRight": null, "LeveeRigh1": null, "HPVertSlic": 20, "HPStartEle": 553.36, "HPVertIncr": 0.83, "HPROBSlice": 5, "HPChanSlic": 5, "HPLOBSlice": 5, "PilotChann": null, "PilotChan1": null, "PilotChan2": null, "IceJamChan": null, "IceJamOver": null, "IceFixedMa": null, "IceThickne": null, "IceThickn1": null, "IceThickn2": null, "IceMannnLe": null, "IceMannnCh": null, "IceMannnRi": null, "IceSpecifi": null, "IceFrictio": null, "IcePorosit": null, "IceK1": null, "IceMaxMean": null, "IceCohesio": null, "Stationing": 0.0, "CutlinetoX": 0.9999903 }, "geometry": { "type": "MultiLineString", "coordinates": [ [ [ 3130445.863817019853741, 10083155.106544300913811 ], [ 3130271.213903860189021, 10083200.930927800014615 ], [ 3130112.160088109783828, 10083223.840002700686455 ] ] ] } },
{ "type": "Feature", "properties": { "FID": 30, "Count": 2, "Length": 284.36582902599997, "River": "Tannehill", "Reach": "TAN 3", "RiverStati": "17649", "NodeName": null, "LastEdited": "01Oct2012 10:08:13", "NodeDescri": "Includes Downstream Channel Survey Section TAN_STR_3500 surveyed on 7-27-11", "LeftBank": 139.35, "RightBank": 180.0, "LengthLOB": 252.63, "LengthChan": 296.6, "LengthROB": 299.6, "ComputedUn": null, "FrictionMo": "Horiz Mann n", "SteadyCont": 0.1, "SteadyExpa": 0.3, "UnsteadyCo": null, "UnsteadyEx": null, "MinorLoss": null, "Skew": null, "LeveeLeftS": null, "LeveeLeftE": null, "LeveeRight": null, "LeveeRigh1": null, "HPVertSlic": 21, "HPStartEle": 550.56, "HPVertIncr": 1.0, "HPROBSlice": 5, "HPChanSlic": 5, "HPLOBSlice": 5, "PilotChann": null, "PilotChan1": null, "PilotChan2": null, "IceJamChan": null, "IceJamOver": null, "IceFixedMa": null, "IceThickne": null, "IceThickn1": null, "IceThickn2": null, "IceMannnLe": null, "IceMannnCh": null, "IceMannnRi": null, "IceSpecifi": null, "IceFrictio": null, "IcePorosit": null, "IceK1": null, "IceMaxMean": null, "IceCohesio": null, "Stationing": 0.0, "CutlinetoX": 0.9999853 }, "geometry": { "type": "MultiLineString", "coordinates": [ [ [ 3130419.79365919996053, 10083063.57490330003202 ], [ 3130137.842451440170407, 10083100.553831899538636 ] ] ] } },
{ "type": "Feature", "properties": { "FID": 31, "Count": 2, "Length": 255.12571610099999, "River": "Tannehill", "Reach": "TAN 3", "RiverStati": "17352", "NodeName": null, "LastEdited": "01Oct2012 10:08:13", "NodeDescri": "Includes Channel Survey Section TAN_XS_3400 surveyed on 7-28-11", "LeftBank": 139.37, "RightBank": 186.85, "LengthLOB": 237.74, "LengthChan": 237.15, "LengthROB": 235.89, "ComputedUn": null, "FrictionMo": "Horiz Mann n", "SteadyCont": 0.1, "SteadyExpa": 0.3, "UnsteadyCo": null, "UnsteadyEx": null, "MinorLoss": null, "Skew": null, "LeveeLeftS": null, "LeveeLeftE": null, "LeveeRight": null, "LeveeRigh1": null, "HPVertSlic": 20, "HPStartEle": 549.93, "HPVertIncr": 0.84, "HPROBSlice": 5, "HPChanSlic": 5, "HPLOBSlice": 5, "PilotChann": null, "PilotChan1": null, "PilotChan2": null, "IceJamChan": null, "IceJamOver": null, "IceFixedMa": null, "IceThickne": null, "IceThickn1": null, "IceThickn2": null, "IceMannnLe": null, "IceMannnCh": null, "IceMannnRi": null, "IceSpecifi": null, "IceFrictio": null, "IcePorosit": null, "IceK1": null, "IceMaxMean": null, "IceCohesio": null, "Stationing": 0.0, "CutlinetoX": 0.9999832 }, "geometry": { "type": "MultiLineString", "coordinates": [ [ [ 3130487.275807689875364, 10082991.713170299306512 ], [ 3130296.862146529834718, 10082821.913969300687313 ] ] ] } },
{ "type": "Feature", "properties": { "FID": 32, "Count": 3, "Length": 259.09965534299999, "River": "Tannehill", "Reach": "TAN 3", "RiverStati": "17115", "NodeName": null, "LastEdited": "01Oct2012 10:08:13", "NodeDescri": null, "LeftBank": 107.06, "RightBank": 163.56, "LengthLOB": 181.16, "LengthChan": 209.33, "LengthROB": 212.32, "ComputedUn": null, "FrictionMo": "Horiz Mann n", "SteadyCont": 0.1, "SteadyExpa": 0.3, "UnsteadyCo": null, "UnsteadyEx": null, "MinorLoss": null, "Skew": null, "LeveeLeftS": null, "LeveeLeftE": null, "LeveeRight": null, "LeveeRigh1": null, "HPVertSlic": 20, "HPStartEle": 546.53, "HPVertIncr": 1.0, "HPROBSlice": 5, "HPChanSlic": 5, "HPLOBSlice": 5, "PilotChann": null, "PilotChan1": null, "PilotChan2": null, "IceJamChan": null, "IceJamOver": null, "IceFixedMa": null, "IceThickne": null, "IceThickn1": null, "IceThickn2": null, "IceMannnLe": null, "IceMannnCh": null, "IceMannnRi": null, "IceSpecifi": null, "IceFrictio": null, "IcePorosit": null, "IceK1": null, "IceMaxMean": null, "IceCohesio": null, "Stationing": 0.0, "CutlinetoX": 0.9999986 }, "geometry": { "type": "MultiLineString", "coordinates": [ [ [ 3130610.950429109856486, 10082773.421612199395895 ], [ 3130426.019696610048413, 10082633.392036600038409 ], [ 3130404.386865850072354, 10082617.01149190030992 ] ] ] } },
{ "type": "Feature", "properties": { "FID": 33, "Count": 4, "Length": 273.30697230499999, "River": "Tannehill", "Reach": "TAN 3", "RiverStati": "16906", "NodeName": null, "LastEdited": "01Oct2012 10:08:13", "NodeDescri": "From 2003 COA DEM", "LeftBank": 185.46, "RightBank": 229.42, "LengthLOB": 84.44, "LengthChan": 78.19, "LengthROB": 76.38, "ComputedUn": null, "FrictionMo": "Horiz Mann n", "SteadyCont": 0.3, "SteadyExpa": 0.5, "UnsteadyCo": null, "UnsteadyEx": null, "MinorLoss": null, "Skew": null, "LeveeLeftS": null, "LeveeLeftE": null, "LeveeRight": null, "LeveeRigh1": null, "HPVertSlic": 21, "HPStartEle": 542.15, "HPVertIncr": 1.0, "HPROBSlice": 5, "HPChanSlic": 5, "HPLOBSlice": 5, "PilotChann": null, "PilotChan1": null, "PilotChan2": null, "IceJamChan": null, "IceJamOver": null, "IceFixedMa": null, "IceThickne": null, "IceThickn1": null, "IceThickn2": null, "IceMannnLe": null, "IceMannnCh": null, "IceMannnRi": null, "IceSpecifi": null, "IceFrictio": null, "IcePorosit": null, "IceK1": null, "IceMaxMean": null, "IceCohesio": null, "Stationing": 0.0, "CutlinetoX": 0.9999889 }, "geometry": { "type": "MultiLineString", "coordinates": [ [ [ 3130727.719880609773099, 10082674.979879900813103 ], [ 3130584.219839530065656, 10082543.789853600785136 ], [ 3130568.762193279806525, 10082493.630833199247718 ], [ 3130560.990198640152812, 10082468.411234300583601 ] ] ] } },
{ "type": "Feature", "properties": { "FID": 34, "Count": 3, "Length": 303.35963373200002, "River": "Tannehill", "Reach": "TAN 3", "RiverStati": "16828", "NodeName": null, "LastEdited": "01Oct2012 10:08:13", "NodeDescri": "Includes Upstream Face Channel Survey Section TAN_STR_3300 surveyed on 7-28-11", "LeftBank": 214.56, "RightBank": 270.66, "LengthLOB": 47.53, "LengthChan": 53.61, "LengthROB": 48.35, "ComputedUn": null, "FrictionMo": "Basic Mann n", "SteadyCont": 0.3, "SteadyExpa": 0.5, "UnsteadyCo": null, "UnsteadyEx": null, "MinorLoss": null, "Skew": null, "LeveeLeftS": null, "LeveeLeftE": null, "LeveeRight": null, "LeveeRigh1": null, "HPVertSlic": 21, "HPStartEle": 540.77, "HPVertIncr": 1.0, "HPROBSlice": 5, "HPChanSlic": 5, "HPLOBSlice": 5, "PilotChann": null, "PilotChan1": null, "PilotChan2": null, "IceJamChan": null, "IceJamOver": null, "IceFixedMa": null, "IceThickne": null, "IceThickn1": null, "IceThickn2": null, "IceMannnLe": null, "IceMannnCh": null, "IceMannnRi": null, "IceSpecifi": null, "IceFrictio": null, "IcePorosit": null, "IceK1": null, "IceMaxMean": null, "IceCohesio": null, "Stationing": 0.0, "CutlinetoX": 0.9999989 }, "geometry": { "type": "MultiLineString", "coordinates": [ [ [ 3130868.462709370069206, 10082654.561941800639033 ], [ 3130694.378083779942244, 10082550.677963199093938 ], [ 3130613.993402020074427, 10082490.133136799558997 ] ] ] } },
{ "type": "Feature", "properties": { "FID": 35, "Count": 2, "Length": 300.68140289000002, "River": "Tannehill", "Reach": "TAN 3", "RiverStati": "16774", "NodeName": null, "LastEdited": "01Oct2012 10:08:13", "NodeDescri": "Channel invert was adjusted using downstream survey point (TAN_STR_3300)", "LeftBank": 197.71, "RightBank": 261.98, "LengthLOB": 133.44, "LengthChan": 144.08, "LengthROB": 137.88, "ComputedUn": null, "FrictionMo": "Basic Mann n", "SteadyCont": 0.3, "SteadyExpa": 0.5, "UnsteadyCo": null, "UnsteadyEx": null, "MinorLoss": null, "Skew": null, "LeveeLeftS": null, "LeveeLeftE": null, "LeveeRight": null, "LeveeRigh1": null, "HPVertSlic": 20, "HPStartEle": 541.3, "HPVertIncr": 0.97, "HPROBSlice": 5, "HPChanSlic": 5, "HPLOBSlice": 5, "PilotChann": null, "PilotChan1": null, "PilotChan2": null, "IceJamChan": null, "IceJamOver": null, "IceFixedMa": null, "IceThickne": null, "IceThickn1": null, "IceThickn2": null, "IceMannnLe": null, "IceMannnCh": null, "IceMannnRi": null, "IceSpecifi": null, "IceFrictio": null, "IcePorosit": null, "IceK1": null, "IceMaxMean": null, "IceCohesio": null, "Stationing": 0.0, "CutlinetoX": 1.000005 }, "geometry": { "type": "MultiLineString", "coordinates": [ [ [ 3130898.044015020132065, 10082624.720794100314379 ], [ 3130642.891638190019876, 10082465.640403600409627 ] ] ] } },
{ "type": "Feature", "properties": { "FID": 36, "Count": 3, "Length": 441.95071456699998, "River": "Tannehill", "Reach": "TAN 3", "RiverStati": "16630", "NodeName": null, "LastEdited": "01Oct2012 10:08:13", "NodeDescri": "Includes Downstream Channel Survey Section TAN_STR_3300 surveyed on 7-28-11", "LeftBank": 335.84, "RightBank": 369.68, "LengthLOB": 206.01, "LengthChan": 209.44, "LengthROB": 208.23, "ComputedUn": null, "FrictionMo": "Horiz Mann n", "SteadyCont": 0.1, "SteadyExpa": 0.3, "UnsteadyCo": null, "UnsteadyEx": null, "MinorLoss": null, "Skew": null, "LeveeLeftS": null, "LeveeLeftE": null, "LeveeRight": null, "LeveeRigh1": null, "HPVertSlic": 20, "HPStartEle": 540.8, "HPVertIncr": 0.99, "HPROBSlice": 5, "HPChanSlic": 5, "HPLOBSlice": 5, "PilotChann": null, "PilotChan1": null, "PilotChan2": null, "IceJamChan": null, "IceJamOver": null, "IceFixedMa": null, "IceThickne": null, "IceThickn1": null, "IceThickn2": null, "IceMannnLe": null, "IceMannnCh": null, "IceMannnRi": null, "IceSpecifi": null, "IceFrictio": null, "IcePorosit": null, "IceK1": null, "IceMaxMean": null, "IceCohesio": null, "Stationing": 0.0, "CutlinetoX": 1.000002 }, "geometry": { "type": "MultiLineString", "coordinates": [ [ [ 3131048.571929189842194, 10082554.631695400923491 ], [ 3130785.866417860146612, 10082405.436783900484443 ], [ 3130672.325287680141628, 10082323.812549600377679 ] ] ] } },
{ "type": "Feature", "properties": { "FID": 37, "Count": 3, "Length": 424.11365976600001, "River": "Tannehill", "Reach": "TAN 3", "RiverStati": "16420", "NodeName": null, "LastEdited": "01Oct2012 14:36:14", "NodeDescri": "From 2003 COA DEM", "LeftBank": 221.25, "RightBank": 269.09, "LengthLOB": 458.8, "LengthChan": 455.22, "LengthROB": 453.39, "ComputedUn": null, "FrictionMo": "Horiz Mann n", "SteadyCont": 0.6, "SteadyExpa": 0.8, "UnsteadyCo": null, "UnsteadyEx": null, "MinorLoss": null, "Skew": null, "LeveeLeftS": null, "LeveeLeftE": null, "LeveeRight": null, "LeveeRigh1": null, "HPVertSlic": 20, "HPStartEle": 539.48, "HPVertIncr": 0.93, "HPROBSlice": 5, "HPChanSlic": 5, "HPLOBSlice": 5, "PilotChann": null, "PilotChan1": null, "PilotChan2": null, "IceJamChan": null, "IceJamOver": null, "IceFixedMa": null, "IceThickne": null, "IceThickn1": null, "IceThickn2": null, "IceMannnLe": null, "IceMannnCh": null, "IceMannnRi": null, "IceSpecifi": null, "IceFrictio": null, "IcePorosit": null, "IceK1": null, "IceMaxMean": null, "IceCohesio": null, "Stationing": 0.0, "CutlinetoX": 1.000009 }, "geometry": { "type": "MultiLineString", "coordinates": [ [ [ 3131073.969844279810786, 10082395.29999309964478 ], [ 3130836.179309349972755, 10082181.281392300501466 ], [ 3130738.441972029861063, 10082145.171884400770068 ] ] ] } },
{ "type": "Feature", "properties": { "FID": 38, "Count": 4, "Length": 353.40740678999998, "River": "Tannehill", "Reach": "TAN 3", "RiverStati": "15965", "NodeName": null, "LastEdited": "01Oct2012 10:26:56", "NodeDescri": "From 2003 COA DEM", "LeftBank": 124.19, "RightBank": 256.46, "LengthLOB": 367.98, "LengthChan": 382.12, "LengthROB": 346.11, "ComputedUn": null, "FrictionMo": "Horiz Mann n", "SteadyCont": 0.1, "SteadyExpa": 0.3, "UnsteadyCo": null, "UnsteadyEx": null, "MinorLoss": null, "Skew": null, "LeveeLeftE": null, "LeveeRigh1": null, "HPVertSlic": 20, "HPStartEle": 536.53, "HPVertIncr": 0.96, "HPROBSlice": 5, "HPChanSlic": 5, "HPLOBSlice": 5, "PilotChann": null, "PilotChan1": null, "PilotChan2": null, "IceJamChan": null, "IceJamOver": null, "IceFixedMa": null, "IceThickne": null, "IceThickn1": null, "IceThickn2": null, "IceMannnLe": null, "IceMannnCh": null, "IceMannnRi": null, "IceSpecifi": null, "IceFrictio": null, "IcePorosit": null, "IceK1": null, "IceMaxMean": null, "IceCohesio": null, "Stationing": -80.1, "CutlinetoX": 0.9999927 }, "geometry": { "type": "MultiLineString", "coordinates": [ [ [ 3131242.585647999774665, 10081832.99567149952054 ], [ 3131074.043663000222296, 10081832.692522499710321 ], [ 3131004.320705399848521, 10081805.262459300458431 ], [ 3130911.401271800044924, 10081746.501093799248338 ] ] ] } },
{ "type": "Feature", "properties": { "FID": 39, "Count": 3, "Length": 400.49789110699999, "River": "Tannehill", "Reach": "TAN 3", "RiverStati": "15583", "NodeName": null, "LastEdited": "01Oct2012 10:08:13", "NodeDescri": "Includes Channel Survey Section TAN_XS_3200 surveyed on 7-29-11", "LeftBank": 256.44, "RightBank": 308.07, "LengthLOB": 144.91, "LengthChan": 159.79, "LengthROB": 177.94, "ComputedUn": null, "FrictionMo": "Horiz Mann n", "SteadyCont": 0.1, "SteadyExpa": 0.3, "UnsteadyCo": null, "UnsteadyEx": null, "MinorLoss": null, "Skew": null, "LeveeLeftS": null, "LeveeLeftE": null, "LeveeRight": null, "LeveeRigh1": null, "HPVertSlic": 22, "HPStartEle": 534.18, "HPVertIncr": 1.0, "HPROBSlice": 5, "HPChanSlic": 5, "HPLOBSlice": 5, "PilotChann": null, "PilotChan1": null, "PilotChan2": null, "IceJamChan": null, "IceJamOver": null, "IceFixedMa": null, "IceThickne": null, "IceThickn1": null, "IceThickn2": null, "IceMannnLe": null, "IceMannnCh": null, "IceMannnRi": null, "IceSpecifi": null, "IceFrictio": null, "IcePorosit": null, "IceK1": null, "IceMaxMean": null, "IceCohesio": null, "Stationing": 0.0, "CutlinetoX": 0.9999948 }, "geometry": { "type": "MultiLineString", "coordinates": [ [ [ 3131319.119944530073553, 10081639.220140399411321 ], [ 3131190.401369940023869, 10081496.246673099696636 ], [ 3130982.316484270151705, 10081492.514069 ] ] ] } },
{ "type": "Feature", "properties": { "FID": 40, "Count": 3, "Length": 421.96874062000001, "River": "Tannehill", "Reach": "TAN 3", "RiverStati": "15423", "NodeName": null, "LastEdited": "01Oct2012 10:08:13", "NodeDescri": "From 2003 COA DEM", "LeftBank": 251.8, "RightBank": 305.53, "LengthLOB": 86.95, "LengthChan": 89.18, "LengthROB": 92.56, "ComputedUn": null, "FrictionMo": "Horiz Mann n", "SteadyCont": 0.3, "SteadyExpa": 0.5, "UnsteadyCo": null, "UnsteadyEx": null, "MinorLoss": null, "Skew": null, "LeveeLeftS": null, "LeveeLeftE": null, "LeveeRight": null, "LeveeRigh1": null, "HPVertSlic": 26, "HPStartEle": 533.92, "HPVertIncr": 1.0, "HPROBSlice": 5, "HPChanSlic": 5, "HPLOBSlice": 5, "PilotChann": null, "PilotChan1": null, "PilotChan2": null, "IceJamChan": null, "IceJamOver": null, "IceFixedMa": null, "IceThickne": null, "IceThickn1": null, "IceThickn2": null, "IceMannnLe": null, "IceMannnCh": null, "IceMannnRi": null, "IceSpecifi": null, "IceFrictio": null, "IcePorosit": null, "IceK1": null, "IceMaxMean": null, "IceCohesio": null, "Stationing": 0.0, "CutlinetoX": 0.999997 }, "geometry": { "type": "MultiLineString", "coordinates": [ [ [ 3131373.468589109834284, 10081548.58515110053122 ], [ 3131307.030073690228164, 10081474.470141900703311 ], [ 3131063.489878360182047, 10081263.159868899732828 ] ] ] } },
{ "type": "Feature", "properties": { "FID": 41, "Count": 3, "Length": 518.73546496300003, "River": "Tannehill", "Reach": "TAN 3", "RiverStati": "15334", "NodeName": null, "LastEdited": "01Oct2012 10:08:13", "NodeDescri": "Includes Upstream Face Channel Survey Section TAN_STR_3100 surveyed on 7-29-11", "LeftBank": 260.56, "RightBank": 310.52, "LengthLOB": 70.94, "LengthChan": 71.66, "LengthROB": 70.97, "ComputedUn": null, "FrictionMo": "Basic Mann n", "SteadyCont": 0.3, "SteadyExpa": 0.5, "UnsteadyCo": null, "UnsteadyEx": null, "MinorLoss": null, "Skew": null, "LeveeLeftS": null, "LeveeLeftE": null, "LeveeRight": null, "LeveeRigh1": null, "HPVertSlic": 22, "HPStartEle": 533.78, "HPVertIncr": 1.0, "HPROBSlice": 5, "HPChanSlic": 5, "HPLOBSlice": 5, "PilotChann": null, "PilotChan1": null, "PilotChan2": null, "IceJamChan": null, "IceJamOver": null, "IceFixedMa": null, "IceThickne": null, "IceThickn1": null, "IceThickn2": null, "IceMannnLe": null, "IceMannnCh": null, "IceMannnRi": null, "IceSpecifi": null, "IceFrictio": null, "IcePorosit": null, "IceK1": null, "IceMaxMean": null, "IceCohesio": null, "Stationing": 0.0, "CutlinetoX": 0.9999913 }, "geometry": { "type": "MultiLineString", "coordinates": [ [ [ 3131409.70014395006001, 10081514.180036200210452 ], [ 3131378.409852189943194, 10081450.680163199082017 ], [ 3131075.270038530230522, 10081120.891124600544572 ] ] ] } },
{ "type": "Feature", "properties": { "FID": 42, "Count": 3, "Length": 540.57683962099998, "River": "Tannehill", "Reach": "TAN 3", "RiverStati": "15262", "NodeName": null, "LastEdited": "01Oct2012 10:08:13", "NodeDescri": "Channel invert was adjusted using downstream survey point (TAN_STR_3100)", "LeftBank": 281.2, "RightBank": 322.94, "LengthLOB": 107.72, "LengthChan": 103.9, "LengthROB": 99.82, "ComputedUn": null, "FrictionMo": "Horiz Mann n", "SteadyCont": 0.3, "SteadyExpa": 0.5, "UnsteadyCo": null, "UnsteadyEx": null, "MinorLoss": null, "Skew": null, "LeveeLeftS": null, "LeveeLeftE": null, "LeveeRight": null, "LeveeRigh1": null, "HPVertSlic": 24, "HPStartEle": 532.55, "HPVertIncr": 1.0, "HPROBSlice": 5, "HPChanSlic": 5, "HPLOBSlice": 5, "PilotChann": null, "PilotChan1": null, "PilotChan2": null, "IceJamChan": null, "IceJamOver": null, "IceFixedMa": null, "IceThickne": null, "IceThickn1": null, "IceThickn2": null, "IceMannnLe": null, "IceMannnCh": null, "IceMannnRi": null, "IceSpecifi": null, "IceFrictio": null, "IcePorosit": null, "IceK1": null, "IceMaxMean": null, "IceCohesio": null, "Stationing": 0.0, "CutlinetoX": 0.9999941 }, "geometry": { "type": "MultiLineString", "coordinates": [ [ [ 3131453.918887529987842, 10081474.384512100368738 ], [ 3131412.126976360101253, 10081384.270519100129604 ], [ 3131114.970090359915048, 10081058.090069100260735 ] ] ] } },
{ "type": "Feature", "properties": { "FID": 43, "Count": 2, "Length": 419.35050341200002, "River": "Tannehill", "Reach": "TAN 3", "RiverStati": "15159", "NodeName": null, "LastEdited": "01Oct2012 10:08:13", "NodeDescri": "Includes Downstream Channel Survey Section TAN_STR_3100 surveyed on 7-29-11", "LeftBank": 185.59, "RightBank": 244.82, "LengthLOB": 392.15, "LengthChan": 387.02, "LengthROB": 373.33, "ComputedUn": null, "FrictionMo": "Horiz Mann n", "SteadyCont": 0.1, "SteadyExpa": 0.3, "UnsteadyCo": null, "UnsteadyEx": null, "MinorLoss": null, "Skew": null, "LeveeLeftS": null, "LeveeLeftE": null, "LeveeRight": null, "LeveeRigh1": null, "HPVertSlic": 27, "HPStartEle": 529.01, "HPVertIncr": 1.0, "HPROBSlice": 5, "HPChanSlic": 5, "HPLOBSlice": 5, "PilotChann": null, "PilotChan1": null, "PilotChan2": null, "IceJamChan": null, "IceJamOver": null, "IceFixedMa": null, "IceThickne": null, "IceThickn1": null, "IceThickn2": null, "IceMannnLe": null, "IceMannnCh": null, "IceMannnRi": null, "IceSpecifi": null, "IceFrictio": null, "IcePorosit": null, "IceK1": null, "IceMaxMean": null, "IceCohesio": null, "Stationing": 0.0, "CutlinetoX": 1.000001 }, "geometry": { "type": "MultiLineString", "coordinates": [ [ [ 3131508.932228940073401, 10081280.539099300280213 ], [ 3131173.155013349838555, 10081029.32503480091691 ] ] ] } },
{ "type": "Feature", "properties": { "FID": 44, "Count": 2, "Length": 315.05935951499998, "River": "Tannehill", "Reach": "TAN 3", "RiverStati": "14772", "NodeName": null, "LastEdited": "01Oct2012 10:08:13", "NodeDescri": "Includes Channel Survey Section TAN_XS_3000 surveyed on 7-29-11", "LeftBank": 79.17, "RightBank": 117.32, "LengthLOB": 271.65, "LengthChan": 267.24, "LengthROB": 259.68, "ComputedUn": null, "FrictionMo": "Horiz Mann n", "SteadyCont": 0.1, "SteadyExpa": 0.3, "UnsteadyCo": null, "UnsteadyEx": null, "MinorLoss": null, "Skew": null, "LeveeLeftS": null, "LeveeLeftE": null, "LeveeRight": null, "LeveeRigh1": null, "HPVertSlic": 24, "HPStartEle": 525.81, "HPVertIncr": 1.0, "HPROBSlice": 5, "HPChanSlic": 5, "HPLOBSlice": 5, "PilotChann": null, "PilotChan1": null, "PilotChan2": null, "IceJamChan": null, "IceJamOver": null, "IceFixedMa": null, "IceThickne": null, "IceThickn1": null, "IceThickn2": null, "IceMannnLe": null, "IceMannnCh": null, "IceMannnRi": null, "IceSpecifi": null, "IceFrictio": null, "IcePorosit": null, "IceK1": null, "IceMaxMean": null, "IceCohesio": null, "Stationing": 0.0, "CutlinetoX": 0.999998 }, "geometry": { "type": "MultiLineString", "coordinates": [ [ [ 3131697.083427439909428, 10080920.514228800311685 ], [ 3131401.214268520008773, 10080812.23754240013659 ] ] ] } },
{ "type": "Feature", "properties": { "FID": 45, "Count": 2, "Length": 302.90344543399999, "River": "Tannehill", "Reach": "TAN 3", "RiverStati": "14504", "NodeName": null, "LastEdited": "01Oct2012 10:08:13", "NodeDescri": "From 2003 COA DEM", "LeftBank": 110.96, "RightBank": 167.95, "LengthLOB": 252.95, "LengthChan": 249.85, "LengthROB": 243.67, "ComputedUn": null, "FrictionMo": "Horiz Mann n", "SteadyCont": 0.1, "SteadyExpa": 0.3, "UnsteadyCo": null, "UnsteadyEx": null, "MinorLoss": null, "Skew": null, "LeveeLeftS": null, "LeveeLeftE": null, "LeveeRight": null, "LeveeRigh1": null, "HPVertSlic": 20, "HPStartEle": 524.78, "HPVertIncr": 0.96, "HPROBSlice": 5, "HPChanSlic": 5, "HPLOBSlice": 5, "PilotChann": null, "PilotChan1": null, "PilotChan2": null, "IceJamChan": null, "IceJamOver": null, "IceFixedMa": null, "IceThickne": null, "IceThickn1": null, "IceThickn2": null, "IceMannnLe": null, "IceMannnCh": null, "IceMannnRi": null, "IceSpecifi": null, "IceFrictio": null, "IcePorosit": null, "IceK1": null, "IceMaxMean": null, "IceCohesio": null, "Stationing": 0.0, "CutlinetoX": 1.000011 }, "geometry": { "type": "MultiLineString", "coordinates": [ [ [ 3131795.47988419001922, 10080638.719844799488783 ], [ 3131493.53987128008157, 10080614.580129399895668 ] ] ] } },
{ "type": "Feature", "properties": { "FID": 46, "Count": 2, "Length": 336.42204256700001, "River": "Tannehill", "Reach": "TAN 3", "RiverStati": "14254", "NodeName": null, "LastEdited": "01Oct2012 10:08:13", "NodeDescri": "From 2003 COA DEM", "LeftBank": 86.34, "RightBank": 154.81, "LengthLOB": 301.67, "LengthChan": 299.09, "LengthROB": 293.22, "ComputedUn": null, "FrictionMo": "Horiz Mann n", "SteadyCont": 0.1, "SteadyExpa": 0.3, "UnsteadyCo": null, "UnsteadyEx": null, "MinorLoss": null, "Skew": null, "LeveeLeftS": null, "LeveeLeftE": null, "LeveeRight": null, "LeveeRigh1": null, "HPVertSlic": 20, "HPStartEle": 523.83, "HPVertIncr": 0.81, "HPROBSlice": 5, "HPChanSlic": 5, "HPLOBSlice": 5, "PilotChann": null, "PilotChan1": null, "PilotChan2": null, "IceJamChan": null, "IceJamOver": null, "IceFixedMa": null, "IceThickne": null, "IceThickn1": null, "IceThickn2": null, "IceMannnLe": null, "IceMannnCh": null, "IceMannnRi": null, "IceSpecifi": null, "IceFrictio": null, "IcePorosit": null, "IceK1": null, "IceMaxMean": null, "IceCohesio": null, "Stationing": 0.0, "CutlinetoX": 1.000006 }, "geometry": { "type": "MultiLineString", "coordinates": [ [ [ 3131842.000132369808853, 10080392.630113899707794 ], [ 3131506.530002770014107, 10080417.920089600607753 ] ] ] } },
{ "type": "Feature", "properties": { "FID": 47, "Count": 2, "Length": 465.96487115100001, "River": "Tannehill", "Reach": "TAN 3", "RiverStati": "13955", "NodeName": null, "LastEdited": "01Oct2012 10:08:13", "NodeDescri": "Includes Channel Survey Section TAN_XS_2900 surveyed on 7-29-11", "LeftBank": 67.07, "RightBank": 124.0, "LengthLOB": 426.39, "LengthChan": 493.82, "LengthROB": 419.88, "ComputedUn": null, "FrictionMo": "Horiz Mann n", "SteadyCont": 0.1, "SteadyExpa": 0.3, "UnsteadyCo": null, "UnsteadyEx": null, "MinorLoss": null, "Skew": null, "LeveeLeftS": null, "LeveeLeftE": null, "LeveeRight": null, "LeveeRigh1": null, "HPVertSlic": 28, "HPStartEle": 522.69, "HPVertIncr": 1.0, "HPROBSlice": 5, "HPChanSlic": 5, "HPLOBSlice": 5, "PilotChann": null, "PilotChan1": null, "PilotChan2": null, "IceJamChan": null, "IceJamOver": null, "IceFixedMa": null, "IceThickne": null, "IceThickn1": null, "IceThickn2": null, "IceMannnLe": null, "IceMannnCh": null, "IceMannnRi": null, "IceSpecifi": null, "IceFrictio": null, "IcePorosit": null, "IceK1": null, "IceMaxMean": null, "IceCohesio": null, "Stationing": 0.0, "CutlinetoX": 0.999989 }, "geometry": { "type": "MultiLineString", "coordinates": [ [ [ 3131857.112634940072894, 10080092.373824700713158 ], [ 3131396.153583109844476, 10080160.491470599547029 ] ] ] } },
{ "type": "Feature", "properties": { "FID": 48, "Count": 5, "Length": 451.70466665700002, "River": "Tannehill", "Reach": "TAN 3", "RiverStati": "13462", "NodeName": null, "LastEdited": "01Oct2012 10:08:13", "NodeDescri": "From 2003 COA DEM", "LeftBank": 203.74, "RightBank": 288.28, "LengthLOB": 31.19, "LengthChan": 22.24, "LengthROB": 29.09, "ComputedUn": null, "FrictionMo": "Horiz Mann n", "SteadyCont": 0.3, "SteadyExpa": 0.5, "UnsteadyCo": null, "UnsteadyEx": null, "MinorLoss": null, "Skew": null, "LeveeLeftS": null, "LeveeLeftE": null, "LeveeRight": null, "LeveeRigh1": null, "HPVertSlic": 20, "HPStartEle": 521.24, "HPVertIncr": 0.76, "HPROBSlice": 5, "HPChanSlic": 5, "HPLOBSlice": 5, "PilotChann": null, "PilotChan1": null, "PilotChan2": null, "IceJamChan": null, "IceJamOver": null, "IceFixedMa": null, "IceThickne": null, "IceThickn1": null, "IceThickn2": null, "IceMannnLe": null, "IceMannnCh": null, "IceMannnRi": null, "IceSpecifi": null, "IceFrictio": null, "IcePorosit": null, "IceK1": null, "IceMaxMean": null, "IceCohesio": null, "Stationing": 0.0, "CutlinetoX": 1.00001 }, "geometry": { "type": "MultiLineString", "coordinates": [ [ [ 3131771.528160439804196, 10079738.015281399711967 ], [ 3131687.714023610111326, 10079729.81155770085752 ], [ 3131553.770721939858049, 10079796.016477800905704 ], [ 3131514.657939270138741, 10079829.805452199652791 ], [ 3131362.511918109841645, 10079897.168178299441934 ] ] ] } },
{ "type": "Feature", "properties": { "FID": 49, "Count": 3, "Length": 458.32201159300001, "River": "Tannehill", "Reach": "TAN 3", "RiverStati": "13439", "NodeName": null, "LastEdited": "01Oct2012 10:08:13", "NodeDescri": "Includes Upstream Face Channel Survey Section TAN_STR_2800 surveyed on 8-2-11", "LeftBank": 217.2, "RightBank": 285.35, "LengthLOB": 51.63, "LengthChan": 47.53, "LengthROB": 48.55, "ComputedUn": null, "FrictionMo": "Horiz Mann n", "SteadyCont": 0.3, "SteadyExpa": 0.5, "UnsteadyCo": null, "UnsteadyEx": null, "MinorLoss": null, "Skew": null, "LeveeLeftS": null, "LeveeLeftE": null, "LeveeRight": null, "LeveeRigh1": null, "HPVertSlic": 20, "HPStartEle": 521.18, "HPVertIncr": 0.74, "HPROBSlice": 5, "HPChanSlic": 5, "HPLOBSlice": 5, "PilotChann": null, "PilotChan1": null, "PilotChan2": null, "IceJamChan": null, "IceJamOver": null, "IceFixedMa": null, "IceThickne": null, "IceThickn1": null, "IceThickn2": null, "IceMannnLe": null, "IceMannnCh": null, "IceMannnRi": null, "IceSpecifi": null, "IceFrictio": null, "IcePorosit": null, "IceK1": null, "IceMaxMean": null, "IceCohesio": null, "Stationing": 0.0, "CutlinetoX": 1.000004 }, "geometry": { "type": "MultiLineString", "coordinates": [ [ [ 3131774.070150109939277, 10079721.519907599315047 ], [ 3131688.235019939951599, 10079710.045521099120378 ], [ 3131356.279975189827383, 10079877.329963399097323 ] ] ] } },
{ "type": "Feature", "properties": { "FID": 50, "Count": 3, "Length": 489.89702406100002, "River": "Tannehill", "Reach": "TAN 3", "RiverStati": "13392", "NodeName": null, "LastEdited": "01Oct2012 10:08:13", "NodeDescri": "Channel invert was adjusted using downstream survey point (TAN_STR_2800)", "LeftBank": 269.43, "RightBank": 334.97, "LengthLOB": 27.08, "LengthChan": 56.8, "LengthROB": 68.25, "ComputedUn": null, "FrictionMo": "Basic Mann n", "SteadyCont": 0.3, "SteadyExpa": 0.5, "UnsteadyCo": null, "UnsteadyEx": null, "MinorLoss": null, "Skew": null, "LeveeLeftS": null, "LeveeLeftE": null, "LeveeRight": null, "LeveeRigh1": null, "HPVertSlic": 20, "HPStartEle": 521.79, "HPVertIncr": 0.71, "HPROBSlice": 5, "HPChanSlic": 5, "HPLOBSlice": 5, "PilotChann": null, "PilotChan1": null, "PilotChan2": null, "IceJamChan": null, "IceJamOver": null, "IceFixedMa": null, "IceThickne": null, "IceThickn1": null, "IceThickn2": null, "IceMannnLe": null, "IceMannnCh": null, "IceMannnRi": null, "IceSpecifi": null, "IceFrictio": null, "IcePorosit": null, "IceK1": null, "IceMaxMean": null, "IceCohesio": null, "Stationing": 0.0, "CutlinetoX": 0.9999939 }, "geometry": { "type": "MultiLineString", "coordinates": [ [ [ 3131799.97987519018352, 10079648.89013160020113 ], [ 3131682.868888940196484, 10079658.172593399882317 ], [ 3131351.579853360075504, 10079828.299877800047398 ] ] ] } },
{ "type": "Feature", "properties": { "FID": 51, "Count": 4, "Length": 496.82567649600003, "River": "Tannehill", "Reach": "TAN 3", "RiverStati": "13335", "NodeName": null, "LastEdited": "01Oct2012 10:08:13", "NodeDescri": "From 2003 COA DEM", "LeftBank": 273.82, "RightBank": 332.07, "LengthLOB": 76.19, "LengthChan": 117.66, "LengthROB": 122.24, "ComputedUn": null, "FrictionMo": "Horiz Mann n", "SteadyCont": 0.1, "SteadyExpa": 0.3, "UnsteadyCo": null, "UnsteadyEx": null, "MinorLoss": null, "Skew": null, "LeveeLeftS": null, "LeveeLeftE": null, "LeveeRight": null, "LeveeRigh1": null, "HPVertSlic": 20, "HPStartEle": 520.97, "HPVertIncr": 0.85, "HPROBSlice": 5, "HPChanSlic": 5, "HPLOBSlice": 5, "PilotChann": null, "PilotChan1": null, "PilotChan2": null, "IceJamChan": null, "IceJamOver": null, "IceFixedMa": null, "IceThickne": null, "IceThickn1": null, "IceThickn2": null, "IceMannnLe": null, "IceMannnCh": null, "IceMannnRi": null, "IceSpecifi": null, "IceFrictio": null, "IcePorosit": null, "IceK1": null, "IceMaxMean": null, "IceCohesio": null, "Stationing": 0.0, "CutlinetoX": 0.9999913 }, "geometry": { "type": "MultiLineString", "coordinates": [ [ [ 3131793.389993350021541, 10079595.869896400719881 ], [ 3131536.739916120190173, 10079699.550135299563408 ], [ 3131485.520530359819531, 10079689.119053799659014 ], [ 3131326.916844950057566, 10079743.765269899740815 ] ] ] } },
{ "type": "Feature", "properties": { "FID": 52, "Count": 3, "Length": 484.82495950200001, "River": "Tannehill", "Reach": "TAN 3", "RiverStati": "13217", "NodeName": null, "LastEdited": "01Oct2012 10:08:13", "NodeDescri": "Includes Channel Survey data surveyed on 8-15-11", "LeftBank": 261.85, "RightBank": 305.29, "LengthLOB": 170.48, "LengthChan": 213.3, "LengthROB": 237.13, "ComputedUn": null, "FrictionMo": "Horiz Mann n", "SteadyCont": 0.1, "SteadyExpa": 0.3, "UnsteadyCo": null, "UnsteadyEx": null, "MinorLoss": null, "Skew": null, "LeveeLeftS": null, "LeveeLeftE": null, "LeveeRight": null, "LeveeRigh1": null, "HPVertSlic": 20, "HPStartEle": 519.32, "HPVertIncr": 0.71, "HPROBSlice": 5, "HPChanSlic": 5, "HPLOBSlice": 5, "PilotChann": null, "PilotChan1": null, "PilotChan2": null, "IceJamChan": null, "IceJamOver": null, "IceFixedMa": null, "IceThickne": null, "IceThickn1": null, "IceThickn2": null, "IceMannnLe": null, "IceMannnCh": null, "IceMannnRi": null, "IceSpecifi": null, "IceFrictio": null, "IcePorosit": null, "IceK1": null, "IceMaxMean": null, "IceCohesio": null, "Stationing": 0.0, "CutlinetoX": 0.9999896 }, "geometry": { "type": "MultiLineString", "coordinates": [ [ [ 3131800.192473189905286, 10079573.56154209934175 ], [ 3131592.253256530035287, 10079618.463355200365186 ], [ 3131349.454529520124197, 10079495.648968299850821 ] ] ] } },
{ "type": "Feature", "properties": { "FID": 53, "Count": 4, "Length": 392.31617126899999, "River": "Tannehill", "Reach": "TAN 3", "RiverStati": "13004", "NodeName": null, "LastEdited": "15Nov2012 15:17:13", "NodeDescri": "From 2003 COA DEM", "LeftBank": 173.28, "RightBank": 203.31, "LengthLOB": 290.06, "LengthChan": 290.17, "LengthROB": 249.58, "ComputedUn": null, "FrictionMo": "Horiz Mann n", "SteadyCont": 0.1, "SteadyExpa": 0.3, "UnsteadyCo": null, "UnsteadyEx": null, "MinorLoss": null, "Skew": null, "LeveeLeftS": null, "LeveeLeftE": null, "LeveeRight": null, "LeveeRigh1": null, "HPVertSlic": 20, "HPStartEle": 516.55, "HPVertIncr": 0.77, "HPROBSlice": 5, "HPChanSlic": 5, "HPLOBSlice": 5, "PilotChann": null, "PilotChan1": null, "PilotChan2": null, "IceJamChan": null, "IceJamOver": null, "IceFixedMa": null, "IceThickne": null, "IceThickn1": null, "IceThickn2": null, "IceMannnLe": null, "IceMannnCh": null, "IceMannnRi": null, "IceSpecifi": null, "IceFrictio": null, "IcePorosit": null, "IceK1": null, "IceMaxMean": null, "IceCohesio": null, "Stationing": 0.0, "CutlinetoX": 0.9999902 }, "geometry": { "type": "MultiLineString", "coordinates": [ [ [ 3131836.919105779845268, 10079550.73809690028429 ], [ 3131697.24320403020829, 10079499.585312100127339 ], [ 3131662.261318610049784, 10079407.758724100887775 ], [ 3131555.299918349832296, 10079309.409839399158955 ] ] ] } },
{ "type": "Feature", "properties": { "FID": 54, "Count": 2, "Length": 402.31409361800002, "River": "Tannehill", "Reach": "TAN 3", "RiverStati": "12714", "NodeName": null, "LastEdited": "01Oct2012 10:08:13", "NodeDescri": "From 2003 COA DEM", "LeftBank": 247.35, "RightBank": 292.05, "LengthLOB": 331.69, "LengthChan": 345.51, "LengthROB": 361.93, "ComputedUn": null, "FrictionMo": "Horiz Mann n", "SteadyCont": 0.1, "SteadyExpa": 0.3, "UnsteadyCo": null, "UnsteadyEx": null, "MinorLoss": null, "Skew": null, "LeveeLeftS": null, "LeveeLeftE": null, "LeveeRight": null, "LeveeRigh1": null, "HPVertSlic": 20, "HPStartEle": 515.35, "HPVertIncr": 0.83, "HPROBSlice": 5, "HPChanSlic": 5, "HPLOBSlice": 5, "PilotChann": null, "PilotChan1": null, "PilotChan2": null, "IceJamChan": null, "IceJamOver": null, "IceFixedMa": null, "IceThickne": null, "IceThickn1": null, "IceThickn2": null, "IceMannnLe": null, "IceMannnCh": null, "IceMannnRi": null, "IceSpecifi": null, "IceFrictio": null, "IcePorosit": null, "IceK1": null, "IceMaxMean": null, "IceCohesio": null, "Stationing": 0.0, "CutlinetoX": 1.00001 }, "geometry": { "type": "MultiLineString", "coordinates": [ [ [ 3132009.409902529790998, 10079388.070115199312568 ], [ 3131696.790120940189809, 10079134.839978599920869 ] ] ] } },
{ "type": "Feature", "properties": { "FID": 55, "Count": 2, "Length": 460.70326465599999, "River": "Tannehill", "Reach": "TAN 3", "RiverStati": "12368", "NodeName": null, "LastEdited": "01Oct2012 10:08:13", "NodeDescri": "Includes Channel Survey Section TAN_XS_2700 surveyed on 8-15-11", "LeftBank": 286.19, "RightBank": 329.07, "LengthLOB": 367.94, "LengthChan": 318.83, "LengthROB": 250.18, "ComputedUn": null, "FrictionMo": "Horiz Mann n", "SteadyCont": 0.1, "SteadyExpa": 0.3, "UnsteadyCo": null, "UnsteadyEx": null, "MinorLoss": null, "Skew": null, "LeveeLeftS": null, "LeveeLeftE": null, "LeveeRight": null, "LeveeRigh1": null, "HPVertSlic": 20, "HPStartEle": 513.39, "HPVertIncr": 0.94, "HPROBSlice": 5, "HPChanSlic": 5, "HPLOBSlice": 5, "PilotChann": null, "PilotChan1": null, "PilotChan2": null, "IceJamChan": null, "IceJamOver": null, "IceFixedMa": null, "IceThickne": null, "IceThickn1": null, "IceThickn2": null, "IceMannnLe": null, "IceMannnCh": null, "IceMannnRi": null, "IceSpecifi": null, "IceFrictio": null, "IcePorosit": null, "IceK1": null, "IceMaxMean": null, "IceCohesio": null, "Stationing": 0.0, "CutlinetoX": 1.000007 }, "geometry": { "type": "MultiLineString", "coordinates": [ [ [ 3132167.840359940193594, 10079234.840434800833464 ], [ 3131960.688543280120939, 10078823.336336499080062 ] ] ] } },
{ "type": "Feature", "properties": { "FID": 56, "Count": 2, "Length": 474.031824508, "River": "Tannehill", "Reach": "TAN 3", "RiverStati": "12049", "NodeName": null, "LastEdited": "01Oct2012 10:08:13", "NodeDescri": "From 2003 COA DEM", "LeftBank": 257.91, "RightBank": 295.15, "LengthLOB": 64.21, "LengthChan": 63.15, "LengthROB": 64.24, "ComputedUn": null, "FrictionMo": "Horiz Mann n", "SteadyCont": 0.3, "SteadyExpa": 0.5, "UnsteadyCo": null, "UnsteadyEx": null, "MinorLoss": null, "Skew": null, "LeveeLeftS": null, "LeveeLeftE": null, "LeveeRight": null, "LeveeRigh1": null, "HPVertSlic": 23, "HPStartEle": 512.04, "HPVertIncr": 1.0, "HPROBSlice": 5, "HPChanSlic": 5, "HPLOBSlice": 5, "PilotChann": null, "PilotChan1": null, "PilotChan2": null, "IceJamChan": null, "IceJamOver": null, "IceFixedMa": null, "IceThickne": null, "IceThickn1": null, "IceThickn2": null, "IceMannnLe": null, "IceMannnCh": null, "IceMannnRi": null, "IceSpecifi": null, "IceFrictio": null, "IcePorosit": null, "IceK1": null, "IceMaxMean": null, "IceCohesio": null, "Stationing": 0.0, "CutlinetoX": 1.000004 }, "geometry": { "type": "MultiLineString", "coordinates": [ [ [ 3132379.011525529902428, 10078572.129489900544286 ], [ 3131951.928390190005302, 10078777.814117800444365 ] ] ] } },
{ "type": "Feature", "properties": { "FID": 57, "Count": 4, "Length": 338.14882500300001, "River": "Tannehill", "Reach": "TAN 3", "RiverStati": "11986", "NodeName": null, "LastEdited": "01Oct2012 10:08:13", "NodeDescri": "Includes Upstream Face Channel Survey Section TAN_XS_2600 surveyed on 8-15-11", "LeftBank": 130.02, "RightBank": 162.28, "LengthLOB": 24.79, "LengthChan": 22.43, "LengthROB": 20.67, "ComputedUn": null, "FrictionMo": "Horiz Mann n", "SteadyCont": 0.3, "SteadyExpa": 0.5, "UnsteadyCo": null, "UnsteadyEx": null, "MinorLoss": null, "Skew": null, "LeveeLeftS": null, "LeveeLeftE": null, "LeveeRight": null, "LeveeRigh1": null, "HPVertSlic": 20, "HPStartEle": 511.79, "HPVertIncr": 0.61, "HPROBSlice": 5, "HPChanSlic": 5, "HPLOBSlice": 5, "PilotChann": null, "PilotChan1": null, "PilotChan2": null, "IceJamChan": null, "IceJamOver": null, "IceFixedMa": null, "IceThickne": null, "IceThickn1": null, "IceThickn2": null, "IceMannnLe": null, "IceMannnCh": null, "IceMannnRi": null, "IceSpecifi": null, "IceFrictio": null, "IcePorosit": null, "IceK1": null, "IceMaxMean": null, "IceCohesio": null, "Stationing": 0.0, "CutlinetoX": 0.9999965 }, "geometry": { "type": "MultiLineString", "coordinates": [ [ [ 3132226.442933020181954, 10078562.722028400748968 ], [ 3132125.669512529857457, 10078625.278005599975586 ], [ 3132075.440610359888524, 10078648.280256200581789 ], [ 3131922.196166189853102, 10078707.510452700778842 ] ] ] } },
{ "type": "Feature", "properties": { "FID": 58, "Count": 4, "Length": 346.20412341100001, "River": "Tannehill", "Reach": "TAN 3", "RiverStati": "11964", "NodeName": null, "LastEdited": "11Nov2012 17:16:43", "NodeDescri": "Channel invert was adjusted using downstream survey point (TAN_STR_2600)", "LeftBank": 132.53, "RightBank": 172.79, "LengthLOB": 43.18, "LengthChan": 49.52, "LengthROB": 51.11, "ComputedUn": null, "FrictionMo": "Horiz Mann n", "SteadyCont": 0.3, "SteadyExpa": 0.5, "UnsteadyCo": null, "UnsteadyEx": null, "MinorLoss": null, "Skew": null, "LeveeLeftS": null, "LeveeLeftE": null, "LeveeRight": null, "LeveeRigh1": null, "HPVertSlic": 20, "HPStartEle": 508.17, "HPVertIncr": 0.79, "HPROBSlice": 5, "HPChanSlic": 5, "HPLOBSlice": 5, "PilotChann": null, "PilotChan1": null, "PilotChan2": null, "IceJamChan": null, "IceJamOver": null, "IceFixedMa": null, "IceThickne": null, "IceThickn1": null, "IceThickn2": null, "IceMannnLe": null, "IceMannnCh": null, "IceMannnRi": null, "IceSpecifi": null, "IceFrictio": null, "IcePorosit": null, "IceK1": null, "IceMaxMean": null, "IceCohesio": null, "Stationing": 0.0, "CutlinetoX": 1.000012 }, "geometry": { "type": "MultiLineString", "coordinates": [ [ [ 3132216.095184700097889, 10078523.312330299988389 ], [ 3132122.845371189992875, 10078600.469000099226832 ], [ 3132064.049885109998286, 10078630.762246599420905 ], [ 3131914.310355190187693, 10078684.326772 ] ] ] } },
{ "type": "Feature", "properties": { "FID": 59, "Count": 3, "Length": 344.22709259800001, "River": "Tannehill", "Reach": "TAN 3", "RiverStati": "11914", "NodeName": null, "LastEdited": "01Oct2012 10:08:13", "NodeDescri": "Includes Downstream Channel Survey Section TAN_XS_2600 surveyed on 8-15-11", "LeftBank": 138.77, "RightBank": 177.77, "LengthLOB": 102.21, "LengthChan": 108.98, "LengthROB": 114.42, "ComputedUn": null, "FrictionMo": "Basic Mann n", "SteadyCont": 0.1, "SteadyExpa": 0.3, "UnsteadyCo": null, "UnsteadyEx": null, "MinorLoss": null, "Skew": null, "LeveeLeftS": null, "LeveeLeftE": null, "LeveeRight": null, "LeveeRigh1": null, "HPVertSlic": 20, "HPStartEle": 512.11, "HPVertIncr": 0.69, "HPROBSlice": 5, "HPChanSlic": 5, "HPLOBSlice": 5, "PilotChann": null, "PilotChan1": null, "PilotChan2": null, "IceJamChan": null, "IceJamOver": null, "IceFixedMa": null, "IceThickne": null, "IceThickn1": null, "IceThickn2": null, "IceMannnLe": null, "IceMannnCh": null, "IceMannnRi": null, "IceSpecifi": null, "IceFrictio": null, "IcePorosit": null, "IceK1": null, "IceMaxMean": null, "IceCohesio": null, "Stationing": 0.0, "CutlinetoX": 0.9999915 }, "geometry": { "type": "MultiLineString", "coordinates": [ [ [ 3132213.322552440222353, 10078490.615217199549079 ], [ 3132136.621918439865112, 10078544.933678099885583 ], [ 3131905.41601603012532, 10078640.663145400583744 ] ] ] } },
{ "type": "Feature", "properties": { "FID": 60, "Count": 2, "Length": 333.06383542700001, "River": "Tannehill", "Reach": "TAN 3", "RiverStati": "11805", "NodeName": null, "LastEdited": "01Oct2012 10:08:13", "NodeDescri": "From 2003 COA DEM", "LeftBank": 115.98, "RightBank": 163.56, "LengthLOB": 8315.8, "LengthChan": 8397.22, "LengthROB": 8368.03, "ComputedUn": null, "FrictionMo": "Basic Mann n", "SteadyCont": 0.1, "SteadyExpa": 0.3, "UnsteadyCo": null, "UnsteadyEx": null, "MinorLoss": null, "Skew": null, "LeveeLeftS": null, "LeveeLeftE": null, "LeveeRight": null, "LeveeRigh1": null, "HPVertSlic": 20, "HPStartEle": 510.81, "HPVertIncr": 0.56, "HPROBSlice": 5, "HPChanSlic": 5, "HPLOBSlice": 5, "PilotChann": null, "PilotChan1": null, "PilotChan2": null, "IceJamChan": null, "IceJamOver": null, "IceFixedMa": null, "IceThickne": null, "IceThickn1": null, "IceThickn2": null, "IceMannnLe": null, "IceMannnCh": null, "IceMannnRi": null, "IceSpecifi": null, "IceFrictio": null, "IcePorosit": null, "IceK1": null, "IceMaxMean": null, "IceCohesio": null, "Stationing": 0.0, "CutlinetoX": 1.000012 }, "geometry": { "type": "MultiLineString", "coordinates": [ [ [ 3132173.343629780225456, 10078433.060870299115777 ], [ 3131851.014550030231476, 10078516.938655300065875 ] ] ] } }
]
}
