{
"type": "FeatureCollection",
"name": "ZRD_TX",
"crs": { "type": "name", "properties": { "name": "urn:ogc:def:crs:OGC:1.3:CRS84" } },
"features": [
{ "type": "Feature", "properties": { "id": 20, "projname": "Zumwalt", "disc": null, "type": "commercial", "notes": null, "zrd": "true", "year": 2022, "co": "ZRD", "City": "Bexar", "State": "TX", "Cnty": null, "QUAD": "Macdona NW", "proj_pname": null, "projno": null, "proj_crs": null }, "geometry": { "type": "Point", "coordinates": [ -98.696033890460541, 29.332886383134827 ] } },
{ "type": "Feature", "properties": { "id": 21, "projname": "SAPTM", "disc": null, "type": "commercial", "notes": null, "zrd": "true", "year": 2017, "co": "GESSNER", "City": "San Antonio", "State": "TX", "Cnty": null, "QUAD": "San Antonio West SE", "proj_pname": null, "projno": null, "proj_crs": null }, "geometry": { "type": "Point", "coordinates": [ -98.526682561018262, 29.412016542338772 ] } },
{ "type": "Feature", "properties": { "id": 22, "projname": "Promesa", "disc": null, "type": "edu", "notes": null, "zrd": "false", "year": 2019, "co": "KCI", "City": "San Antonio", "State": "TX", "Cnty": null, "QUAD": "San Antonio West SE", "proj_pname": null, "projno": null, "proj_crs": null }, "geometry": { "type": "Point", "coordinates": [ -98.527896255113319, 29.410635424835867 ] } },
{ "type": "Feature", "properties": { "id": 23, "projname": "Alamo Heights City Hall", "disc": null, "type": "public", "notes": null, "zrd": "false", "year": 2013, "co": "COYLE", "City": "Alamo Heights", "State": "TX", "Cnty": null, "QUAD": "San Antonio East NW", "proj_pname": null, "projno": null, "proj_crs": null }, "geometry": { "type": "Point", "coordinates": [ -98.466140000617798, 29.484541672157963 ] } },
{ "type": "Feature", "properties": { "id": 24, "projname": "Eckhert Road Apartments", "disc": null, "type": "flood", "notes": null, "zrd": "false", "year": 2014, "co": "VICKREY", "City": "San Antonio", "State": "TX", "Cnty": null, "QUAD": "Helotes SE", "proj_pname": null, "projno": null, "proj_crs": null }, "geometry": { "type": "Point", "coordinates": [ -98.631571426158388, 29.512737436347134 ] } },
{ "type": "Feature", "properties": { "id": 25, "projname": "Villa de la Cascada", "disc": null, "type": "mf", "notes": null, "zrd": "false", "year": 2014, "co": "VICKREY", "City": "San Antonio", "State": "TX", "Cnty": null, "QUAD": "Culebra Hill NE", "proj_pname": null, "projno": null, "proj_crs": null }, "geometry": { "type": "Point", "coordinates": [ -98.644233207798919, 29.466415249385069 ] } },
{ "type": "Feature", "properties": { "id": 26, "projname": "Seacrest Apartments", "disc": null, "type": "mf", "notes": null, "zrd": "true", "year": 2021, "co": "ZRD", "City": "Garland", "State": "TX", "Cnty": null, "QUAD": "Garland NE", "proj_pname": null, "projno": null, "proj_crs": null }, "geometry": { "type": "Point", "coordinates": [ -96.669662256917249, 32.942540980151563 ] } },
{ "type": "Feature", "properties": { "id": 27, "projname": "Springhill Suites", "disc": null, "type": "commercial", "notes": null, "zrd": "false", "year": 2017, "co": "GESSNER", "City": "Fort Worth", "State": "TX", "Cnty": null, "QUAD": "Haltom City SW", "proj_pname": null, "projno": null, "proj_crs": null }, "geometry": { "type": "Point", "coordinates": [ -97.349522298329163, 32.786833046312992 ] } },
{ "type": "Feature", "properties": { "id": 28, "projname": "Cedar Park Fire Station No. 5", "disc": null, "type": "public", "notes": null, "zrd": "false", "year": 2017, "co": "GESSNER", "City": "Cedar Park", "State": "TX", "Cnty": null, "QUAD": "Leander SE", "proj_pname": null, "projno": null, "proj_crs": null }, "geometry": { "type": "Point", "coordinates": [ -97.809162466570612, 30.534816902334551 ] } },
{ "type": "Feature", "properties": { "id": 29, "projname": "Martinez Millwork", "disc": null, "type": "commercial", "notes": null, "zrd": "false", "year": 2016, "co": "GESSNER", "City": "Houston", "State": "TX", "Cnty": null, "QUAD": "Clodine SE", "proj_pname": null, "projno": null, "proj_crs": null }, "geometry": { "type": "Point", "coordinates": [ -95.642532625778628, 29.686609402136483 ] } },
{ "type": "Feature", "properties": { "id": 31, "projname": "Premont Lift Station", "disc": null, "type": "ww", "notes": null, "zrd": "false", "year": 2019, "co": "KCI", "City": "Premont", "State": "TX", "Cnty": null, "QUAD": "Premont East NW", "proj_pname": null, "projno": null, "proj_crs": null }, "geometry": { "type": "Point", "coordinates": [ -98.11425345294839, 27.354983783079639 ] } },
{ "type": "Feature", "properties": { "id": 49, "projname": "Altman Nursery", "disc": null, "type": "flood", "notes": null, "zrd": "false", "year": 2021, "co": "DOUCET", "City": "San Antonio", "State": "TX", "Cnty": null, "QUAD": "Macdona NW", "proj_pname": null, "projno": null, "proj_crs": null }, "geometry": { "type": "Point", "coordinates": [ -98.704233159466099, 29.356968061362117 ] } },
{ "type": "Feature", "properties": { "id": 50, "projname": "Lake Placid FDP", "disc": null, "type": "flood", "notes": null, "zrd": "false", "year": 2016, "co": "GESSNER", "City": "Seguin", "State": "TX", "Cnty": null, "QUAD": "McQueeney SE", "proj_pname": null, "projno": null, "proj_crs": null }, "geometry": { "type": "Point", "coordinates": [ -98.005683869117178, 29.550838366505289 ] } },
{ "type": "Feature", "properties": { "id": 51, "projname": "Dripping Springs WW", "disc": null, "type": "ww mp", "notes": null, "zrd": "false", "year": 2020, "co": "DOUCET", "City": "Dripping Springs", "State": "TX", "Cnty": null, "QUAD": "Dripping Springs NW", "proj_pname": null, "projno": null, "proj_crs": null }, "geometry": { "type": "Point", "coordinates": [ -98.074700419821056, 30.193022578004641 ] } },
{ "type": "Feature", "properties": { "id": 52, "projname": "Lockhart Ind Park", "disc": null, "type": "commercial", "notes": null, "zrd": "false", "year": 2021, "co": "DOUCET", "City": "Lockhart", "State": "TX", "Cnty": null, "QUAD": "Lockhart North SW", "proj_pname": null, "projno": null, "proj_crs": null }, "geometry": { "type": "Point", "coordinates": [ -97.71839099592205, 29.890652301563019 ] } },
{ "type": "Feature", "properties": { "id": 53, "projname": "126 SHORT STREET", "disc": null, "type": "flood", "notes": null, "zrd": "true", "year": 2023, "co": "ZRD", "City": "Boerne", "State": "TX", "Cnty": null, "QUAD": "Boerne SW", "proj_pname": null, "projno": null, "proj_crs": null }, "geometry": { "type": "Point", "coordinates": [ -98.723860014427004, 29.791115656599395 ] } },
{ "type": "Feature", "properties": { "id": 54, "projname": "Pleasanton Lots", "disc": null, "type": "sfr", "notes": null, "zrd": "true", "year": 2022, "co": "ZRD", "City": "Pleasanton", "State": "TX", "Cnty": null, "QUAD": "Jourdanton NE", "proj_pname": null, "projno": null, "proj_crs": null }, "geometry": { "type": "Point", "coordinates": [ -98.501104778028704, 28.965039556720683 ] } },
{ "type": "Feature", "properties": { "id": 55, "projname": "Kenedy HS", "disc": null, "type": "fire water supply", "notes": null, "zrd": "false", "year": 2015, "co": "GESSNER", "City": "Kenedy", "State": "TX", "Cnty": null, "QUAD": "Kenedy NW", "proj_pname": null, "projno": null, "proj_crs": null }, "geometry": { "type": "Point", "coordinates": [ -97.838499358836984, 28.819078771633635 ] } },
{ "type": "Feature", "properties": { "id": 56, "projname": "Runge School", "disc": null, "type": "edu", "notes": "Floodplain, ballfield, site, utilities", "zrd": "false", "year": 2014, "co": "VICKREY", "City": "Runge", "State": "TX", "Cnty": null, "QUAD": "Runge SW", "proj_pname": null, "projno": null, "proj_crs": null }, "geometry": { "type": "Point", "coordinates": [ -97.711037282431434, 28.888891701834439 ] } },
{ "type": "Feature", "properties": { "id": 57, "projname": "TPWD CCA Marine Center", "disc": "fish", "type": "public", "notes": "hatchery pond upgrades", "zrd": "false", "year": 2014, "co": "VICKREY", "City": "Corpus Christi", "State": "TX", "Cnty": null, "QUAD": "Pita Island NE", "proj_pname": null, "projno": null, "proj_crs": null }, "geometry": { "type": "Point", "coordinates": [ -97.307734707731584, 27.612557438699064 ] } },
{ "type": "Feature", "properties": { "id": 58, "projname": "Harbor Bridge", "disc": null, "type": "w/ww", "notes": "utilities", "zrd": "false", "year": 2018, "co": "KCI", "City": "Corpus Christi", "State": "TX", "Cnty": null, "QUAD": "Corpus Christi SE", "proj_pname": null, "projno": null, "proj_crs": null }, "geometry": { "type": "Point", "coordinates": [ -97.397775842183094, 27.809107195768362 ] } },
{ "type": "Feature", "properties": { "id": 59, "projname": "Ueling RV Park", "disc": null, "type": "commercial", "notes": null, "zrd": "false", "year": 2023, "co": "SG", "City": "Rockport", "State": "TX", "Cnty": null, "QUAD": "Estes NW", "proj_pname": null, "projno": null, "proj_crs": null }, "geometry": { "type": "Point", "coordinates": [ -97.105917106414154, 27.95853203776737 ] } },
{ "type": "Feature", "properties": { "id": 60, "projname": "17090 Jordan", "disc": null, "type": "drainage", "notes": null, "zrd": "true", "year": 2023, "co": "ZRD", "City": "Selma", "State": "TX", "Cnty": "Comal", "QUAD": "Schertz NE", "proj_pname": null, "projno": null, "proj_crs": null }, "geometry": { "type": "Point", "coordinates": [ -98.303084729846319, 29.595956425141829 ] } },
{ "type": "Feature", "properties": { "id": 8, "projname": "Oakwood Hills", "disc": "VPE", "type": "drainage", "notes": null, "zrd": "true", "year": 2024, "co": "VPE", "City": "Leander", "State": "TX", "Cnty": null, "QUAD": "Nameless SW", "proj_pname": null, "projno": "23003", "proj_crs": null }, "geometry": { "type": "Point", "coordinates": [ -97.941227507269446, 30.53270205257591 ] } },
{ "type": "Feature", "properties": { "id": 1, "projname": "CYPRESS MEADOWS", "disc": null, "type": "flood", "notes": "VPE", "zrd": "false", "year": 2024, "co": "VPE", "City": "Leander", "State": "TX", "Cnty": null, "QUAD": "Leander SW", "proj_pname": null, "projno": "24010", "proj_crs": null }, "geometry": { "type": "Point", "coordinates": [ -97.845064763082192, 30.548841197805935 ] } },
{ "type": "Feature", "properties": { "id": 61, "projname": "LEANDER FIRE STATION No. 4", "disc": null, "type": "public", "notes": null, "zrd": "false", "year": 2018, "co": "GESSNER", "City": "Leander", "State": "TX", "Cnty": null, "QUAD": "Leander NE", "proj_pname": null, "projno": null, "proj_crs": null }, "geometry": { "type": "Point", "coordinates": [ -97.804925029088793, 30.567123840944497 ] } },
{ "type": "Feature", "properties": { "id": 62, "projname": "SAN MARCOS FIRE STATION No. 4", "disc": null, "type": "public", "notes": null, "zrd": "false", "year": 2017, "co": "GESSNER", "City": "San Marcos", "State": "TX", "Cnty": null, "QUAD": "San Marcos South NW", "proj_pname": null, "projno": null, "proj_crs": null }, "geometry": { "type": "Point", "coordinates": [ -97.944832747919648, 29.849297242216448 ] } },
{ "type": "Feature", "properties": { "id": 4, "projname": "DEE GABRIEL DRAINAGE", "disc": "VPE", "type": "mf", "notes": "VPE 23035", "zrd": "false", "year": 2024, "co": "VPE", "City": "Austin", "State": "TX", "Cnty": null, "QUAD": "Montopolis SW", "proj_pname": null, "projno": "23035", "proj_crs": null }, "geometry": { "type": "Point", "coordinates": [ -97.716856059356175, 30.171939172968532 ] } },
{ "type": "Feature", "properties": { "id": 63, "projname": "6801 W HWY 90", "disc": null, "type": "commercial", "notes": null, "zrd": "true", "year": 2024, "co": "ZRD", "City": "San Antonio", "State": "TX", "Cnty": "Bexar", "QUAD": "San Antonio West SW", "proj_pname": null, "projno": null, "proj_crs": null }, "geometry": { "type": "Point", "coordinates": [ -98.62451147190464, 29.403787902222 ] } },
{ "type": "Feature", "properties": { "id": 64, "projname": "Afton Oaks DD", "disc": null, "type": "mf", "notes": "Balanced Site Design, LLC", "zrd": "true", "year": 2024, "co": "ZRD", "City": "San Antonio", "State": "TX", "Cnty": "Bexar", "QUAD": "Longhorn NW", "proj_pname": null, "projno": null, "proj_crs": null }, "geometry": { "type": "Point", "coordinates": [ -98.488936499073176, 29.608434576502589 ] } },
{ "type": "Feature", "properties": { "id": 65, "projname": "31665 Tres Lomas", "disc": "OSSF", "type": "ww", "notes": null, "zrd": "true", "year": 2024, "co": "ZRD", "City": "Bulverde", "State": "TX", "Cnty": null, "QUAD": "Smithson Valley SW", "proj_pname": null, "projno": null, "proj_crs": null }, "geometry": { "type": "Point", "coordinates": [ -98.364690151138106, 29.764462791754084 ] } },
{ "type": "Feature", "properties": { "id": 66, "projname": "101 Tonkawa Ridge", "disc": null, "type": "SFR", "notes": "proposal", "zrd": "false", "year": 2024, "co": "SG", "City": "Hutto", "State": "TX", "Cnty": "Williamson", "QUAD": "Pflugerville East NE", "proj_pname": null, "projno": null, "proj_crs": null }, "geometry": { "type": "Point", "coordinates": [ -97.535937557543392, 30.483479479731301 ] } },
{ "type": "Feature", "properties": { "id": 67, "projname": "Cow Bayou", "disc": null, "type": "flood", "notes": "SG", "zrd": "false", "year": 2024, "co": "SG", "City": "Orange", "State": "TX", "Cnty": "Orange", "QUAD": "Port Arthur North NE", "proj_pname": null, "projno": null, "proj_crs": null }, "geometry": { "type": "Point", "coordinates": [ -93.876945229541406, 29.982373051746453 ] } },
{ "type": "Feature", "properties": { "id": 68, "projname": "Adams Bayou", "disc": null, "type": "flood", "notes": "SG", "zrd": "false", "year": 2024, "co": "SG", "City": "Orange", "State": "TX", "Cnty": "Jasper", "QUAD": "Orangefield SE", "proj_pname": null, "projno": null, "proj_crs": null }, "geometry": { "type": "Point", "coordinates": [ -93.767546115575541, 30.029443954476918 ] } },
{ "type": "Feature", "properties": { "id": 69, "projname": "NETL", "disc": null, "type": "water supply and distribution", "notes": "KCI", "zrd": "false", "year": 2018, "co": "KCI", "City": "Houston", "State": "TX", "Cnty": null, "QUAD": "Harmaston SE", "proj_pname": null, "projno": null, "proj_crs": null }, "geometry": { "type": "Point", "coordinates": [ -95.171322570204495, 29.934680443143602 ] } },
{ "type": "Feature", "properties": { "id": 70, "projname": "Mercedes Plat", "disc": null, "type": "entitlements", "notes": "KCI", "zrd": "false", "year": 2019, "co": "KCI", "City": "Mercedes", "State": "TX", "Cnty": null, "QUAD": "Mercedes SE", "proj_pname": null, "projno": null, "proj_crs": null }, "geometry": { "type": "Point", "coordinates": [ -97.932792835119784, 26.162412256264151 ] } },
{ "type": "Feature", "properties": { "id": 78, "projname": "Falls On Clearwood", "disc": null, "type": "insp", "notes": "Gessner sub", "zrd": "true", "year": 2024, "co": "ZRD", "City": "Richardson", "State": "TX", "Cnty": "Collin", "QUAD": "Addison NE", "proj_pname": null, "projno": null, "proj_crs": null }, "geometry": { "type": "Point", "coordinates": [ -96.766705226855677, 32.941444354389759 ] } },
{ "type": "Feature", "properties": { "id": 79, "projname": "Grand Prairie Readiness Center", "disc": null, "type": "dod", "notes": null, "zrd": "false", "year": 2017, "co": "GESSNER", "City": "Grand Prairie", "State": "TX", "Cnty": null, "QUAD": "Duncanville NW", "proj_pname": null, "projno": null, "proj_crs": null }, "geometry": { "type": "Point", "coordinates": [ -96.979402363497201, 32.730915683093841 ] } },
{ "type": "Feature", "properties": { "id": 80, "projname": "I35 Waco TXDOT Drainage", "disc": null, "type": "txdot", "notes": null, "zrd": "false", "year": 2014, "co": "VICKREY", "City": "n", "State": "TX", "Cnty": null, "QUAD": "Waco East SW", "proj_pname": null, "projno": null, "proj_crs": null }, "geometry": { "type": "Point", "coordinates": [ -97.124125560309992, 31.548786293250988 ] } },
{ "type": "Feature", "properties": { "id": 3, "projname": "Taylor Subdv", "disc": "VPE", "type": "flood", "notes": "VPE", "zrd": "false", "year": 2024, "co": "VPE", "City": "Taylor", "State": "TX", "Cnty": "Williamson", "QUAD": "Bastrop NW", "proj_pname": null, "projno": "23062", "proj_crs": null }, "geometry": { "type": "Point", "coordinates": [ -97.320132614856988, 30.108411878891253 ] } },
{ "type": "Feature", "properties": { "id": 81, "projname": "Grant Prideco", "disc": null, "type": "OG", "notes": null, "zrd": "false", "year": 2017, "co": "GESSNER", "City": "Navasota", "State": "TX", "Cnty": null, "QUAD": "Courtney NE", "proj_pname": null, "projno": null, "proj_crs": null }, "geometry": { "type": "Point", "coordinates": [ -96.059852472412885, 30.368446954506837 ] } },
{ "type": "Feature", "properties": { "id": 17, "projname": "3415 Triple Meadow", "disc": "UNCLE COUSIN", "type": "sfr", "notes": "outbuilding", "zrd": "true", "year": 2023, "co": "ZRD", "City": "China Grove", "State": "TX", "Cnty": "Bexar", "QUAD": "Martinez SW", "proj_pname": "202303001 3415 Triple Meadow", "projno": "202303001", "proj_crs": 2278 }, "geometry": { "type": "Point", "coordinates": [ -98.343052575440183, 29.392383080932163 ] } },
{ "type": "Feature", "properties": { "id": 82, "projname": "Martindale Airfield", "disc": null, "type": "dod", "notes": "Gessner", "zrd": "false", "year": 2017, "co": "GESSNER", "City": "Martindale", "State": "TX", "Cnty": null, "QUAD": "San Antonio East SE", "proj_pname": null, "projno": null, "proj_crs": null }, "geometry": { "type": "Point", "coordinates": [ -98.378679964603052, 29.43257756222296 ] } },
{ "type": "Feature", "properties": { "id": 10, "projname": "Prairie Lea", "disc": null, "type": "SFR", "notes": "VPE", "zrd": "false", "year": 2024, "co": "VPE", "City": "Prairie Lea", "State": "TX", "Cnty": "Caldwell", "QUAD": "Kingsbury NE", "proj_pname": null, "projno": "22002", "proj_crs": null }, "geometry": { "type": "Point", "coordinates": [ -97.754055513474214, 29.730998814934072 ] } },
{ "type": "Feature", "properties": { "id": 11, "projname": "Seawillow", "disc": null, "type": "single family", "notes": null, "zrd": "false", "year": 2024, "co": "VPE", "City": "Lockhart", "State": "TX", "Cnty": null, "QUAD": "Lockhart South NE", "proj_pname": null, "projno": "22001", "proj_crs": null }, "geometry": { "type": "Point", "coordinates": [ -97.667393366790037, 29.86365519583789 ] } },
{ "type": "Feature", "properties": { "id": 83, "projname": "Padre Dr", "disc": null, "type": "flood", "notes": "proposal", "zrd": "false", "year": 2024, "co": "SG", "City": "San Antonio", "State": "TX", "Cnty": "Bexar", "QUAD": "Southton NW", "proj_pname": null, "projno": null, "proj_crs": null }, "geometry": { "type": "Point", "coordinates": [ -98.474113573870497, 29.361036164923171 ] } },
{ "type": "Feature", "properties": { "id": 2, "projname": "Temple Industrial Flex", "disc": "VPE", "type": "commercial industrial flex", "notes": "VPE", "zrd": "false", "year": 2024, "co": "VPE", "City": "Temple", "State": "TX", "Cnty": "Bell", "QUAD": "Moffat SE", "proj_pname": null, "projno": "24003", "proj_crs": null }, "geometry": { "type": "Point", "coordinates": [ -97.410464817955386, 31.134586712384728 ] } },
{ "type": "Feature", "properties": { "id": 84, "projname": "Tylerville Tracts", "disc": "SG", "type": "flood", "notes": "SG", "zrd": "false", "year": 2024, "co": "SG", "City": "Leander", "State": "TX", "Cnty": null, "QUAD": "Leander NW", "proj_pname": null, "projno": null, "proj_crs": null }, "geometry": { "type": "Point", "coordinates": [ -97.861134080009975, 30.592593507488544 ] } },
{ "type": "Feature", "properties": { "id": 85, "projname": "Cole Drive Floodplain Study", "disc": null, "type": "flood", "notes": "SG", "zrd": "false", "year": 2024, "co": "SG", "City": "Liberty Hill", "State": "TX", "Cnty": null, "QUAD": "Liberty Hill NE", "proj_pname": null, "projno": null, "proj_crs": null }, "geometry": { "type": "Point", "coordinates": [ -97.878312767049565, 30.701654346000552 ] } },
{ "type": "Feature", "properties": { "id": 14, "projname": "Gruene MF", "disc": "ZRD", "type": "mf", "notes": null, "zrd": "true", "year": 2024, "co": "ZRD", "City": "Gruene", "State": "TX", "Cnty": null, "QUAD": "New Braunfels East NW", "proj_pname": null, "projno": "202411002", "proj_crs": null }, "geometry": { "type": "Point", "coordinates": [ -98.112159993821848, 29.738457519081656 ] } },
{ "type": "Feature", "properties": { "id": 15, "projname": "115 Queens Crescent", "disc": "UNCLE COUSIN", "type": "LTR", "notes": null, "zrd": "true", "year": 2024, "co": "ZRD", "City": "San Antonio", "State": "TX", "Cnty": "Bexar", "QUAD": "San Antonio East NW", "proj_pname": null, "projno": "202411001", "proj_crs": null }, "geometry": { "type": "Point", "coordinates": [ -98.487161215222528, 29.456255400097959 ] } },
{ "type": "Feature", "properties": { "id": 7, "projname": "Midlothian SF", "disc": "VPE", "type": "SFR", "notes": "VPE", "zrd": "false", "year": 2024, "co": "VPE", "City": "Midlothian", "State": "TX", "Cnty": null, "QUAD": "Midlothian NW", "proj_pname": null, "projno": "23006", "proj_crs": null }, "geometry": { "type": "Point", "coordinates": [ -96.991629236552882, 32.478337046204892 ] } },
{ "type": "Feature", "properties": { "id": 9, "projname": "SEGUIN 80", "disc": "VPE", "type": "flood", "notes": null, "zrd": "false", "year": 2024, "co": "VPE", "City": "Seguin", "State": "TX", "Cnty": "Guadalupe", "QUAD": "Geronimo SW", "proj_pname": null, "projno": "22007", "proj_crs": null }, "geometry": { "type": "Point", "coordinates": [ -97.966855474903198, 29.678161327111905 ] } },
{ "type": "Feature", "properties": { "id": 86, "projname": "Tannehill Flood Modeling", "disc": null, "type": "flood", "notes": null, "zrd": "false", "year": 2024, "co": "SG", "City": "Austin", "State": "TX", "Cnty": null, "QUAD": "Austin East SW", "proj_pname": "202305004 City of Austin Tannehill", "projno": "202305004", "proj_crs": 2277 }, "geometry": { "type": "Point", "coordinates": [ -97.695033773175183, 30.302360083945629 ] } },
{ "type": "Feature", "properties": { "id": 6, "projname": "Ferguson 4", "disc": "multifamily", "type": "flood", "notes": null, "zrd": "false", "year": 2025, "co": "VPE", "City": "Dallas", "State": "TX", "Cnty": "Dallas", "QUAD": "White Rock Lake NW", "proj_pname": null, "projno": "23008", "proj_crs": null }, "geometry": { "type": "Point", "coordinates": [ -96.700056187952811, 32.812970466441222 ] } },
{ "type": "Feature", "properties": { "id": 5, "projname": "Parks", "disc": "sfr floodplain", "type": "floodplain", "notes": null, "zrd": "false", "year": 2025, "co": "VPE", "City": "DeSoto", "State": "TX", "Cnty": "Dallas", "QUAD": "Lancaster NW", "proj_pname": null, "projno": "23033", "proj_crs": null }, "geometry": { "type": "Point", "coordinates": [ -96.848482880007708, 32.581444324385266 ] } },
{ "type": "Feature", "properties": { "id": 107, "projname": "TMP_Bulverde", "disc": null, "type": null, "notes": null, "zrd": "true", "year": 2025, "co": "B5", "City": "Bulverde", "State": "TX", "Cnty": "Bulverde", "QUAD": "Anhalt SW", "proj_pname": null, "projno": null, "proj_crs": null }, "geometry": { "type": "Point", "coordinates": [ -98.456189747684974, 29.755443452720943 ] } },
{ "type": "Feature", "properties": { "id": 108, "projname": "Bugtussle 18", "disc": null, "type": "flood sfr", "notes": "VPE", "zrd": "false", "year": 2025, "co": "vpe", "City": "unincorp", "State": "TX", "Cnty": "Caldwell", "QUAD": "Lockhart South SW", "proj_pname": null, "projno": null, "proj_crs": null }, "geometry": { "type": "Point", "coordinates": [ -97.725596602003876, 29.770599233343251 ] } },
{ "type": "Feature", "properties": { "id": 109, "projname": "Leander Flex", "disc": null, "type": "commercial", "notes": null, "zrd": "false", "year": 2025, "co": "ESB", "City": "Leander", "State": "TX", "Cnty": "Williamson", "QUAD": null, "proj_pname": null, "projno": null, "proj_crs": null }, "geometry": { "type": "Point", "coordinates": [ -97.873468465378707, 30.603141628687858 ] } },
{ "type": "Feature", "properties": { "id": 13, "projname": "Avistar at the Oaks", "disc": "multifamily", "type": "commercial", "notes": null, "zrd": "true", "year": 2025, "co": "ZRD", "City": "San Antonio", "State": "TX", "Cnty": "Bexar", "QUAD": null, "proj_pname": "202505001 Avistar at the Oaks", "projno": "202505001", "proj_crs": 2278 }, "geometry": { "type": "Point", "coordinates": [ -98.418848658796705, 29.560742915458583 ] } },
{ "type": "Feature", "properties": { "id": 12, "projname": "6347 Channel View", "disc": "LOMR", "type": "flood", "notes": null, "zrd": "true", "year": 2025, "co": "ZRD", "City": "San Antonio", "State": "TX", "Cnty": "Bexar", "QUAD": "Martinez", "proj_pname": "202505002 6347 Channel View", "projno": "202505002", "proj_crs": 2278 }, "geometry": { "type": "Point", "coordinates": [ -98.366157849104198, 29.37867299231317 ] } },
{ "type": "Feature", "properties": { "id": 16, "projname": "Parra 1604 Floodplain", "disc": null, "type": "flood", "notes": "flood", "zrd": "false", "year": 2023, "co": "SG", "City": "San Antonio", "State": "TX", "Cnty": "Bexar", "QUAD": "Thelma NW", "proj_pname": "202308001 Parra 1604 Floodplain", "projno": "202308001", "proj_crs": 2278 }, "geometry": { "type": "Point", "coordinates": [ -98.567089892960709, 29.232312728782016 ] } },
{ "type": "Feature", "properties": { "id": 19, "projname": "Test Project", "disc": null, "type": null, "notes": null, "zrd": "true", "year": 2024, "co": "ZRD", "City": "unincorp", "State": "TX", "Cnty": "Bexar", "QUAD": "Elmendorf NW", "proj_pname": "199805001 Test Project", "projno": "199805001", "proj_crs": 2278 }, "geometry": { "type": "Point", "coordinates": [ -97.45249092751375, 27.699229575123407 ] } },
{ "type": "Feature", "properties": { "id": 19, "projname": "32975 Stahl Ln", "disc": null, "type": "flood", "notes": null, "zrd": "true", "year": 2025, "co": "ZRD", "City": "unincorp", "State": "TX", "Cnty": "Comal", "QUAD": null, "proj_pname": "202507001 32975 Stahl Ln", "projno": "202507001", "proj_crs": 2278 }, "geometry": { "type": "Point", "coordinates": [ -98.415194270197631, 29.78126675180884 ] } },
{ "type": "Feature", "properties": { "id": 12, "projname": "La Vernia", "disc": null, "type": "flood", "notes": null, "zrd": "true", "year": 2025, "co": "ZRD", "City": "La Vernia", "State": "TX", "Cnty": "Wilsonr", "QUAD": null, "proj_pname": "202507002 La Vernia", "projno": "202507002", "proj_crs": 2278 }, "geometry": { "type": "Point", "coordinates": [ -98.140954423728388, 29.349699157500488 ] } },
{ "type": "Feature", "properties": { "id": 999, "projname": "Guadalupe Flooding", "disc": "flood", "type": "flood", "notes": "no contract", "zrd": "true", "year": 2025, "co": "ZRD", "City": "Kerrville", "State": "TX", "Cnty": "Kerr", "QUAD": "Hunt", "proj_pname": "202507004 Guadalupe Flooding", "projno": "202507004", "proj_crs": 2278 }, "geometry": { "type": "Point", "coordinates": [ -99.370168340946606, 30.00942918650145 ] } },
{ "type": "Feature", "properties": { "id": null, "projname": "Lucas Creek", "disc": null, "type": "flood", "notes": null, "zrd": "false", "year": 2025, "co": "SG", "City": null, "State": "TX", "Cnty": "Bexar", "QUAD": null, "proj_pname": "202509001 Lucas Creek", "projno": "202509001", "proj_crs": 2278 }, "geometry": { "type": "Point", "coordinates": [ -98.737003758135856, 29.354300200080552 ] } },
{ "type": "Feature", "properties": { "id": 19, "projname": "Test Ras", "disc": null, "type": null, "notes": null, "zrd": "true", "year": 2025, "co": "ZRD", "City": "unincorp", "State": "TX", "Cnty": "Bexar", "QUAD": "Elmendorf NW", "proj_pname": "199805002 Test Ras", "projno": "199805002", "proj_crs": 2278 }, "geometry": { "type": "Point", "coordinates": [ -93.821215233185384, 30.206251274081559 ] } },
{ "type": "Feature", "properties": { "id": null, "projname": "Oso Creek AAFMR", "disc": null, "type": "flood", "notes": null, "zrd": "false", "year": 2024, "co": "SG", "City": "Corpus Christi", "State": "Texas", "Cnty": "Corpus Christi", "QUAD": null, "proj_pname": "202507002 AAFMR Oso Creek", "projno": "202507002", "proj_crs": 2279 }, "geometry": { "type": "Point", "coordinates": [ -97.502096482116201, 27.711804086178859 ] } },
{ "type": "Feature", "properties": { "id": null, "projname": "REPI Madla Park", "disc": null, "type": "lid", "notes": null, "zrd": "false", "year": 2025, "co": "SG", "City": "Helotes", "State": "TX", "Cnty": "Bexar", "QUAD": null, "proj_pname": "202502002 REPI Madla Park", "projno": "202502002", "proj_crs": 2278 }, "geometry": { "type": "Point", "coordinates": [ -98.684529740550047, 29.604969760431604 ] } },
{ "type": "Feature", "properties": { "id": null, "projname": "REPI Pack Ranch", "disc": null, "type": "lid", "notes": null, "zrd": "false", "year": 2025, "co": "SG", "City": "Helotes", "State": "TX", "Cnty": "Bexar", "QUAD": null, "proj_pname": "202502001 REPI Pack Ranch", "projno": "202502001", "proj_crs": 2278 }, "geometry": { "type": "Point", "coordinates": [ -98.688682367404766, 29.588690121008231 ] } },
{ "type": "Feature", "properties": { "id": null, "projname": "Cevallos Court", "disc": "replat", "type": "land", "notes": null, "zrd": "true", "year": 2025, "co": "ZRD", "City": "San Antonio", "State": "Texas", "Cnty": "Bexar", "QUAD": null, "proj_pname": "202510001 Cevallos Court", "projno": "202510001", "proj_crs": 2278 }, "geometry": { "type": "Point", "coordinates": [ -98.498173675764065, 29.407680792138411 ] } },
{ "type": "Feature", "properties": { "id": 1, "projname": "4232 Corral Dr", "disc": null, "type": null, "notes": null, "zrd": "false", "year": 2026, "co": "ESB", "City": "Dallas", "State": "TX", "Cnty": "Dallas", "QUAD": null, "proj_pname": null, "projno": null, "proj_crs": null }, "geometry": { "type": "Point", "coordinates": [ -96.888447301485868, 32.669905088298847 ] } },
{ "type": "Feature", "properties": { "id": 1, "projname": "Old Pearsall Rd THs", "disc": "multifamily", "type": "drainage", "notes": null, "zrd": "true", "year": 2026, "co": "Urbane", "City": "San Antonio", "State": "TX", "Cnty": "Bexar", "QUAD": null, "proj_pname": "202601002 Old Pearsall Rd THs", "projno": "202601002", "proj_crs": 2278 }, "geometry": { "type": "Point", "coordinates": [ -98.608730497477609, 29.351767730229767 ] } }
]
}
